{"type":"FeatureCollection","features":[{"type":"Feature","properties":{"id":"AR-EXTRA-MLV","name":"Islas Malvinas"},"geometry":{"type":"MultiPolygon","coordinates":[[[[-58.85,-51.27],[-58.698,-51.329],[-58.506,-51.308],[-58.426,-51.324],[-58.379,-51.373],[-58.407,-51.418],[-58.519,-51.424],[-58.509,-51.484],[-58.272,-51.575],[-58.235,-51.579],[-58.289,-51.458],[-58.259,-51.417],[-57.977,-51.384],[-57.923,-51.404],[-57.808,-51.518],[-57.915,-51.534],[-57.96,-51.583],[-57.792,-51.636],[-57.838,-51.709],[-58.151,-51.765],[-58.218,-51.822],[-58.336,-51.864],[-58.683,-51.936],[-58.638,-52.023],[-58.653,-52.099],[-59.131,-52.008],[-59.196,-52.018],[-59.068,-52.173],[-59.163,-52.202],[-59.256,-52.183],[-59.342,-52.196],[-59.396,-52.308],[-59.532,-52.236],[-59.649,-52.134],[-59.649,-52.077],[-59.537,-51.971],[-59.571,-51.925],[-59.309,-51.78],[-59.262,-51.737],[-59.06,-51.685],[-59.099,-51.59],[-59.097,-51.491],[-58.887,-51.358],[-58.917,-51.272],[-58.85,-51.27]]],[[[-60.286,-51.462],[-60.142,-51.481],[-60.009,-51.411],[-59.917,-51.388],[-59.842,-51.403],[-59.788,-51.446],[-59.711,-51.439],[-59.493,-51.396],[-59.465,-51.411],[-59.388,-51.36],[-59.321,-51.384],[-59.268,-51.428],[-59.294,-51.479],[-59.354,-51.511],[-59.437,-51.593],[-59.514,-51.627],[-59.921,-51.97],[-60.132,-51.994],[-60.246,-51.986],[-60.288,-52.074],[-60.353,-52.14],[-60.484,-52.17],[-60.508,-52.195],[-60.686,-52.188],[-60.812,-52.148],[-60.961,-52.057],[-60.763,-51.946],[-60.591,-51.952],[-60.334,-51.84],[-60.238,-51.772],[-60.238,-51.734],[-60.277,-51.717],[-60.5,-51.757],[-60.583,-51.713],[-60.245,-51.639],[-60.303,-51.58],[-60.415,-51.545],[-60.506,-51.485],[-60.518,-51.428],[-60.568,-51.358],[-60.516,-51.354],[-60.286,-51.462]]],[[[-61.019,-51.786],[-60.876,-51.794],[-60.948,-51.946],[-61.032,-51.942],[-61.145,-51.839],[-61.052,-51.814],[-61.019,-51.786]]],[[[-58.439,-52.011],[-58.433,-52.099],[-58.513,-52.071],[-58.541,-52.028],[-58.497,-51.999],[-58.439,-52.011]]],[[[-60.112,-51.396],[-60.249,-51.396],[-60.276,-51.363],[-60.275,-51.281],[-60.171,-51.273],[-60.07,-51.308],[-60.112,-51.396]]],[[[-59.683,-52.232],[-59.764,-52.242],[-59.793,-52.134],[-59.681,-52.18],[-59.683,-52.232]]]]}}]}