{"type":"FeatureCollection","features":[{"type":"Feature","properties":{"code":"AR-E","name":"Entre R\u00edos"},"geometry":{"type":"Polygon","coordinates":[[[-58.2001,-32.4471],[-58.2228,-32.5343],[-58.1794,-32.8283],[-58.1378,-32.9003],[-58.1468,-33.05],[-58.2045,-33.0919],[-58.3832,-33.0755],[-58.4302,-33.1026],[-58.4123,-33.2983],[-58.5065,-33.4059],[-58.5494,-33.683],[-58.5407,-33.7452],[-58.461,-33.8595],[-58.4394,-33.9797],[-58.447,-34.0069],[-58.6385,-34.0485],[-59.0318,-33.8296],[-59.2313,-33.798],[-59.2689,-33.7212],[-59.3926,-33.7394],[-59.5207,-33.6553],[-59.6028,-33.6778],[-59.7724,-33.6105],[-59.8439,-33.5339],[-60.1181,-33.3936],[-60.4954,-33.1221],[-60.6755,-32.8465],[-60.7058,-32.6795],[-60.767,-32.5783],[-60.7069,-32.1562],[-60.6618,-32.0693],[-60.72,-31.9223],[-60.674,-31.8529],[-60.6478,-31.716],[-60.4141,-31.6735],[-60.1637,-31.4421],[-60.0634,-31.2695],[-59.7198,-30.831],[-59.6606,-30.7361],[-59.6223,-30.5748],[-59.6148,-30.4627],[-59.6615,-30.3369],[-59.3885,-30.306],[-59.2413,-30.3435],[-59.005,-30.2041],[-58.8762,-30.227],[-58.5871,-30.153],[-58.2296,-30.253],[-58.068,-30.4207],[-57.9873,-30.6035],[-57.8019,-30.7733],[-57.8072,-30.9076],[-57.9117,-30.9474],[-57.8552,-31.059],[-57.9117,-31.1706],[-57.9051,-31.241],[-57.9902,-31.3993],[-58.0752,-31.4752],[-57.9868,-31.5541],[-57.9886,-31.6428],[-58.0593,-31.8115],[-58.1529,-31.836],[-58.2026,-31.8931],[-58.1453,-32.0179],[-58.1865,-32.1529],[-58.0965,-32.281],[-58.2001,-32.4471]]]}},{"type":"Feature","properties":{"code":"AR-A","name":"Salta"},"geometry":{"type":"Polygon","coordinates":[[[-67.2847,-23.8341],[-67.2508,-23.7333],[-67.0798,-23.8336],[-66.8736,-24.0501],[-66.7685,-24.0984],[-66.6753,-24.1991],[-66.5045,-24.2371],[-66.388,-24.141],[-66.352,-24.0414],[-66.3379,-23.7238],[-66.4067,-23.5188],[-66.3776,-23.3907],[-66.3522,-23.3678],[-66.2572,-23.3913],[-65.9921,-23.5339],[-65.9868,-23.7192],[-66.026,-23.8476],[-66.0002,-23.9413],[-65.9594,-23.9932],[-65.9019,-23.9804],[-65.7591,-24.0768],[-65.7515,-24.1751],[-65.5804,-24.408],[-65.2769,-24.5018],[-65.1649,-24.4543],[-65.0643,-24.5465],[-64.9223,-24.5995],[-64.8282,-24.4555],[-64.618,-24.6139],[-64.503,-24.4807],[-64.298,-24.4016],[-64.1771,-24.2407],[-64.1834,-23.526],[-64.3675,-23.5096],[-64.4383,-23.6196],[-64.5558,-23.5056],[-64.6601,-23.4546],[-64.7957,-23.5024],[-64.869,-23.4963],[-64.9525,-23.3084],[-65.0369,-23.2658],[-65.013,-23.034],[-65.0572,-22.9918],[-65.182,-22.985],[-65.2272,-22.9506],[-65.2856,-22.7318],[-65.2652,-22.6382],[-65.3455,-22.5882],[-65.1905,-22.0985],[-65.0204,-22.0966],[-64.5869,-22.2128],[-64.5428,-22.2755],[-64.572,-22.3432],[-64.4283,-22.5423],[-64.4537,-22.6429],[-64.3557,-22.7519],[-64.3253,-22.8719],[-64.2508,-22.5407],[-64.1605,-22.4385],[-63.9332,-22.0018],[-63.8131,-22.003],[-63.7404,-22.0506],[-63.6394,-21.9975],[-62.8044,-22.0041],[-62.7835,-22.1309],[-62.6248,-22.2473],[-62.6253,-22.305],[-62.3414,-22.4723],[-62.3344,-24.4029],[-63.3986,-25.6594],[-63.9244,-25.6523],[-64.1918,-25.5799],[-64.425,-26.0276],[-64.4863,-26.2202],[-64.7674,-26.2114],[-64.9457,-26.2741],[-65.2528,-26.1724],[-65.3144,-26.076],[-65.4421,-26.1201],[-65.6653,-26.0748],[-65.719,-26.299],[-66.0538,-26.2535],[-66.157,-26.1699],[-66.2091,-26.1657],[-66.3994,-26.3873],[-66.5333,-26.26],[-66.8158,-25.8125],[-66.81,-25.7302],[-66.7457,-25.6774],[-66.5713,-25.6671],[-66.495,-25.6085],[-66.4692,-25.4798],[-66.5603,-25.2724],[-67.8069,-25.2832],[-68.4965,-25.16],[-68.3666,-25.1234],[-68.4435,-25.0211],[-68.4731,-24.9079],[-68.551,-24.8688],[-68.578,-24.8087],[-68.4955,-24.6018],[-68.4515,-24.6293],[-68.3977,-24.5005],[-68.3268,-24.4982],[-68.2445,-24.3854],[-67.3624,-24.0304],[-67.2847,-23.8341]]]}},{"type":"Feature","properties":{"code":"AR-Y","name":"Jujuy"},"geometry":{"type":"Polygon","coordinates":[[[-67.2513,-23.7331],[-67.014,-23.0007],[-67.1939,-22.8222],[-67.0266,-22.6394],[-67.0327,-22.5246],[-66.7851,-22.4276],[-66.7359,-22.2251],[-66.3775,-22.1271],[-66.3076,-22.077],[-66.2225,-21.7869],[-66.0945,-21.8329],[-66.0465,-21.918],[-65.9327,-21.9446],[-65.7753,-22.1051],[-65.1905,-22.0985],[-65.3455,-22.5882],[-65.2652,-22.6382],[-65.2866,-22.7228],[-65.231,-22.9451],[-65.0174,-23.0267],[-65.0413,-23.2567],[-64.9525,-23.3084],[-64.8747,-23.4941],[-64.7957,-23.5024],[-64.6601,-23.4546],[-64.5558,-23.5056],[-64.4383,-23.6196],[-64.3675,-23.5096],[-64.1888,-23.5133],[-64.1588,-24.1836],[-64.298,-24.4016],[-64.503,-24.4807],[-64.6094,-24.6105],[-64.8282,-24.4555],[-64.9017,-24.5926],[-64.9359,-24.5977],[-65.0643,-24.5465],[-65.1649,-24.4543],[-65.2769,-24.5018],[-65.5871,-24.4026],[-65.7515,-24.1751],[-65.7591,-24.0768],[-65.9019,-23.9804],[-65.9594,-23.9932],[-66.0002,-23.9413],[-66.026,-23.8476],[-65.9868,-23.7192],[-65.9868,-23.5433],[-66.1702,-23.4207],[-66.3421,-23.3687],[-66.3776,-23.3907],[-66.4067,-23.5188],[-66.3379,-23.7238],[-66.352,-24.0414],[-66.388,-24.141],[-66.5045,-24.2371],[-66.6753,-24.1991],[-66.7685,-24.0984],[-66.8736,-24.0501],[-67.0798,-23.8336],[-67.2513,-23.7331]]]}},{"type":"Feature","properties":{"code":"AR-P","name":"Formosa"},"geometry":{"type":"Polygon","coordinates":[[[-62.3414,-22.4723],[-62.2872,-22.4839],[-62.2412,-22.5384],[-62.2528,-22.6036],[-62.193,-22.6282],[-62.1883,-22.7083],[-62.0358,-22.8849],[-61.9564,-23.0344],[-61.7693,-23.1656],[-61.733,-23.2434],[-61.5161,-23.345],[-61.5011,-23.4078],[-61.297,-23.4814],[-61.2726,-23.5236],[-61.1099,-23.607],[-61.1188,-23.6664],[-61.0063,-23.8055],[-60.8376,-23.8718],[-60.6322,-23.8923],[-60.5775,-23.9442],[-60.3374,-24.0164],[-60.0337,-24.007],[-59.6105,-24.2896],[-59.4659,-24.3536],[-59.341,-24.4876],[-59.0009,-24.6442],[-58.8092,-24.7768],[-58.4734,-24.8513],[-58.336,-24.9919],[-58.2241,-24.9412],[-57.9838,-25.0742],[-57.8707,-25.0853],[-57.7541,-25.1809],[-57.6408,-25.3726],[-57.5581,-25.4435],[-57.5753,-25.5644],[-57.7746,-25.7017],[-57.7404,-25.7221],[-57.8206,-25.7783],[-57.8019,-25.8314],[-57.8754,-25.8761],[-57.8514,-25.9084],[-57.9058,-25.9686],[-57.8596,-25.9809],[-57.8727,-26.0103],[-58.0865,-26.1272],[-58.124,-26.2019],[-58.1513,-26.1815],[-58.106,-26.2395],[-58.17,-26.2703],[-58.1676,-26.335],[-58.2131,-26.4186],[-58.1854,-26.4517],[-58.2173,-26.5276],[-58.1649,-26.5923],[-58.1923,-26.6128],[-58.1786,-26.6507],[-58.2355,-26.6498],[-58.2479,-26.7582],[-58.2879,-26.7686],[-58.2886,-26.8115],[-58.34,-26.8086],[-58.3158,-26.8741],[-58.3513,-26.8858],[-58.3821,-26.8456],[-58.4576,-26.8342],[-58.5698,-26.6948],[-58.8633,-26.5039],[-58.9821,-26.3896],[-59.1523,-26.2964],[-59.2645,-26.3467],[-59.347,-26.3401],[-59.4196,-26.1844],[-59.6632,-26.1322],[-59.6736,-26.0135],[-59.8537,-25.8661],[-59.8678,-25.8177],[-60.0386,-25.6972],[-60.1781,-25.6651],[-60.2387,-25.4952],[-60.3442,-25.424],[-60.3603,-25.3633],[-60.4997,-25.2096],[-60.6451,-25.1645],[-61.0343,-24.898],[-61.0765,-24.8953],[-61.1452,-24.7257],[-61.2085,-24.6658],[-61.4437,-24.624],[-61.5734,-24.4861],[-61.6546,-24.4836],[-61.7757,-24.3417],[-61.902,-24.3173],[-62.0266,-24.216],[-62.3392,-24.1206],[-62.3414,-22.4723]]]}},{"type":"Feature","properties":{"code":"AR-N","name":"Misiones"},"geometry":{"type":"Polygon","coordinates":[[[-54.5985,-25.6538],[-54.6002,-25.5749],[-54.56,-25.5702],[-54.473,-25.6258],[-54.4473,-25.6892],[-54.3954,-25.5811],[-54.2992,-25.5527],[-54.2556,-25.5987],[-54.1903,-25.5808],[-54.2148,-25.5315],[-54.1651,-25.5344],[-54.1164,-25.4946],[-54.0989,-25.5972],[-54.0827,-25.5501],[-53.9974,-25.575],[-53.9677,-25.6532],[-53.8981,-25.6395],[-53.8835,-25.7356],[-53.8404,-25.7914],[-53.8334,-25.9622],[-53.765,-26.0281],[-53.6667,-26.2192],[-53.7244,-26.3761],[-53.7395,-26.6756],[-53.7743,-26.7143],[-53.7224,-26.8144],[-53.7246,-26.9405],[-53.8009,-27.0391],[-53.83,-27.1568],[-53.8822,-27.1199],[-53.9095,-27.1683],[-53.9641,-27.154],[-53.9618,-27.1914],[-54.0051,-27.1882],[-54.0918,-27.2852],[-54.1581,-27.2795],[-54.177,-27.2434],[-54.2316,-27.3805],[-54.2869,-27.4284],[-54.3477,-27.3943],[-54.3716,-27.4544],[-54.3889,-27.4111],[-54.4446,-27.409],[-54.4484,-27.4589],[-54.5433,-27.487],[-54.5895,-27.4526],[-54.6903,-27.5513],[-54.7739,-27.5638],[-54.805,-27.5264],[-54.8451,-27.6119],[-54.8983,-27.6236],[-54.9132,-27.7369],[-54.9852,-27.7853],[-55.0812,-27.7783],[-55.0296,-27.8507],[-55.0999,-27.8438],[-55.1192,-27.8809],[-55.1776,-27.8536],[-55.2602,-27.9192],[-55.3141,-27.915],[-55.4407,-28.0789],[-55.5059,-28.0789],[-55.5535,-28.1456],[-55.6047,-28.1169],[-55.623,-28.1443],[-55.737,-28.066],[-55.8327,-27.9184],[-55.8586,-27.7533],[-56.0173,-27.4516],[-56.0145,-27.3938],[-55.9661,-27.3317],[-55.9131,-27.3278],[-55.8542,-27.4012],[-55.7547,-27.4437],[-55.5913,-27.3284],[-55.5687,-27.246],[-55.5983,-27.1675],[-55.5553,-27.1538],[-55.5338,-27.0994],[-55.4619,-27.098],[-55.414,-26.9799],[-55.2806,-26.9343],[-55.1384,-26.9537],[-55.1258,-26.8636],[-55.0609,-26.8052],[-54.9753,-26.7878],[-54.9199,-26.6741],[-54.7931,-26.645],[-54.7898,-26.5285],[-54.6977,-26.4282],[-54.6383,-26.197],[-54.6638,-26.1492],[-54.6425,-26.0628],[-54.6623,-25.9799],[-54.6064,-25.9466],[-54.5879,-25.8108],[-54.6429,-25.6616],[-54.5985,-25.6538]]]}},{"type":"Feature","properties":{"code":"AR-H","name":"Chaco"},"geometry":{"type":"Polygon","coordinates":[[[-58.3513,-26.8858],[-58.4755,-26.938],[-58.5115,-27.0602],[-58.5454,-27.041],[-58.5655,-27.116],[-58.6533,-27.1563],[-58.6524,-27.198],[-58.6016,-27.2457],[-58.6042,-27.3163],[-58.8865,-27.4789],[-58.8157,-27.7169],[-58.8647,-27.9993],[-61.7099,-28.0004],[-61.7105,-26.1466],[-61.7223,-25.7442],[-61.7539,-25.6614],[-63.3986,-25.6594],[-62.3344,-24.4029],[-62.3392,-24.1206],[-62.0266,-24.216],[-61.902,-24.3173],[-61.7757,-24.3417],[-61.6546,-24.4836],[-61.5734,-24.4861],[-61.4437,-24.624],[-61.2085,-24.6658],[-61.1452,-24.7257],[-61.0765,-24.8953],[-61.0343,-24.898],[-60.6451,-25.1645],[-60.4997,-25.2096],[-60.3603,-25.3633],[-60.3442,-25.424],[-60.2387,-25.4952],[-60.1781,-25.6651],[-60.0386,-25.6972],[-59.8678,-25.8177],[-59.8537,-25.8661],[-59.6736,-26.0135],[-59.6632,-26.1322],[-59.4196,-26.1844],[-59.347,-26.3401],[-59.2645,-26.3467],[-59.1523,-26.2964],[-58.9535,-26.4056],[-58.8633,-26.5039],[-58.5698,-26.6948],[-58.4624,-26.8304],[-58.3821,-26.8456],[-58.3513,-26.8858]]]}},{"type":"Feature","properties":{"code":"AR-W","name":"Corrientes"},"geometry":{"type":"Polygon","coordinates":[[[-58.2382,-27.257],[-57.944,-27.2746],[-57.5134,-27.4141],[-57.3352,-27.4095],[-57.1801,-27.4873],[-57.0762,-27.484],[-56.9044,-27.4187],[-56.7712,-27.5067],[-56.613,-27.4464],[-56.5464,-27.4551],[-56.3997,-27.5868],[-56.297,-27.4809],[-56.2798,-27.3896],[-56.15,-27.3118],[-55.9661,-27.3317],[-56.0006,-27.3604],[-56.0173,-27.4516],[-55.8733,-27.7158],[-55.8386,-27.9066],[-55.737,-28.066],[-55.623,-28.1443],[-55.7725,-28.232],[-55.6636,-28.3265],[-55.6942,-28.4001],[-55.8423,-28.3464],[-55.9056,-28.378],[-55.902,-28.4651],[-56.0116,-28.4966],[-56.0408,-28.609],[-56.1847,-28.7442],[-56.2861,-28.7802],[-56.301,-28.8814],[-56.3916,-28.9522],[-56.428,-29.0699],[-56.6173,-29.1609],[-56.6887,-29.3296],[-56.7699,-29.3791],[-56.819,-29.475],[-57.0209,-29.6834],[-57.1129,-29.766],[-57.2915,-29.8151],[-57.3252,-29.981],[-57.5062,-30.1443],[-57.6425,-30.1931],[-57.6237,-30.2581],[-57.6527,-30.3291],[-57.8496,-30.4853],[-57.8898,-30.5508],[-57.8087,-30.7473],[-57.9873,-30.6035],[-58.068,-30.4207],[-58.2608,-30.2307],[-58.6297,-30.1523],[-58.8762,-30.227],[-59.005,-30.2041],[-59.2413,-30.3435],[-59.3885,-30.306],[-59.6615,-30.3369],[-59.6693,-30.2939],[-59.5953,-30.0492],[-59.6728,-29.8471],[-59.5911,-29.615],[-59.5829,-29.3778],[-59.5113,-29.2076],[-59.3589,-29.1435],[-59.1974,-29.0221],[-59.1944,-28.9214],[-59.087,-28.6271],[-59.0662,-28.4014],[-59.0875,-28.1752],[-59.0599,-28.1294],[-58.9505,-28.1124],[-58.8947,-28.0708],[-58.8416,-27.9163],[-58.8157,-27.7169],[-58.8865,-27.4789],[-58.656,-27.3311],[-58.5108,-27.2784],[-58.2382,-27.257]]]}},{"type":"Feature","properties":{"code":"AR-K","name":"Catamarca"},"geometry":{"type":"Polygon","coordinates":[[[-68.3378,-27.0456],[-68.3054,-26.898],[-68.5702,-26.5506],[-68.5953,-26.4573],[-68.5752,-26.3035],[-68.409,-26.1442],[-68.4985,-25.7549],[-68.5594,-25.663],[-68.555,-25.5726],[-68.6099,-25.4742],[-68.4965,-25.16],[-67.8069,-25.2832],[-66.5551,-25.2755],[-66.4692,-25.4798],[-66.495,-25.6085],[-66.5713,-25.6671],[-66.7354,-25.674],[-66.7993,-25.7179],[-66.8029,-25.8592],[-66.5333,-26.26],[-66.4106,-26.3827],[-66.3623,-26.372],[-66.3016,-26.2456],[-66.2248,-26.171],[-66.157,-26.1699],[-66.0538,-26.2535],[-66.1002,-26.3215],[-66.152,-26.5379],[-66.0158,-26.6008],[-65.852,-26.7304],[-65.8838,-26.9403],[-66.1946,-27.3194],[-65.9819,-27.3938],[-65.9293,-27.6543],[-65.8779,-27.6972],[-65.8508,-27.7802],[-65.703,-27.8179],[-65.6646,-27.9452],[-65.5707,-28.0502],[-65.497,-27.9612],[-65.349,-27.8633],[-65.2276,-27.9235],[-65.1691,-27.9097],[-65.0791,-28.2746],[-65.0722,-28.4241],[-65.18,-28.6451],[-65.0926,-28.7213],[-65.0354,-29.2927],[-64.8825,-29.5571],[-64.9511,-29.579],[-64.9616,-29.6105],[-64.9434,-29.8783],[-65.1382,-30.0631],[-65.4019,-30.1402],[-65.7295,-29.5022],[-65.7554,-29.3148],[-65.7924,-29.2501],[-66.1218,-28.9706],[-66.3623,-28.8545],[-66.3793,-28.8244],[-66.3376,-28.7357],[-66.4647,-28.6311],[-66.496,-28.4991],[-66.5844,-28.4042],[-66.9762,-28.2674],[-67.0426,-28.2842],[-67.0986,-28.3415],[-67.1871,-28.3563],[-67.7042,-28.3393],[-67.8241,-28.3824],[-67.9144,-28.2489],[-67.9319,-28.1241],[-68.0921,-28.1544],[-68.1515,-28.1056],[-68.2773,-28.0862],[-68.3484,-28.0194],[-68.4422,-27.9994],[-68.4423,-27.7431],[-68.8496,-27.7934],[-69.1341,-27.7723],[-69.0758,-27.6962],[-69.0923,-27.6402],[-69.0286,-27.5513],[-69.0174,-27.4604],[-68.9314,-27.3952],[-68.8708,-27.1984],[-68.8143,-27.1203],[-68.7186,-27.1067],[-68.5859,-27.1628],[-68.518,-27.0769],[-68.3378,-27.0456]]]}},{"type":"Feature","properties":{"code":"AR-F","name":"La Rioja"},"geometry":{"type":"Polygon","coordinates":[[[-69.4203,-28.2126],[-69.3032,-27.9995],[-69.1902,-27.9514],[-69.1341,-27.7723],[-68.8496,-27.7934],[-68.6571,-27.7521],[-68.5691,-27.7721],[-68.4992,-27.7358],[-68.4286,-27.7602],[-68.4422,-27.9994],[-68.3484,-28.0194],[-68.2773,-28.0862],[-68.1515,-28.1056],[-68.0921,-28.1544],[-67.9319,-28.1241],[-67.9144,-28.2489],[-67.8241,-28.3824],[-67.7042,-28.3393],[-67.1871,-28.3563],[-67.0986,-28.3415],[-67.0426,-28.2842],[-66.9762,-28.2674],[-66.5844,-28.4042],[-66.5183,-28.4675],[-66.4647,-28.6311],[-66.3355,-28.7407],[-66.3776,-28.8168],[-66.3623,-28.8545],[-66.1218,-28.9706],[-65.7924,-29.2501],[-65.7554,-29.3148],[-65.7295,-29.5022],[-65.4019,-30.1402],[-65.7673,-31.0962],[-65.7596,-31.8855],[-65.9073,-31.9007],[-66.0544,-31.8714],[-66.2172,-31.9254],[-66.3739,-31.9338],[-66.7305,-31.8766],[-66.7821,-31.7744],[-66.8367,-31.7475],[-66.8545,-31.6357],[-66.9448,-31.6157],[-67.0489,-31.5233],[-67.1039,-31.3543],[-67.06,-31.0818],[-67.1147,-31.0385],[-67.0836,-30.8916],[-67.1923,-30.714],[-67.5662,-30.3797],[-67.6345,-30.2479],[-67.9137,-30.0507],[-68.0766,-29.8827],[-68.1562,-29.8491],[-68.3355,-29.6872],[-68.605,-29.6453],[-68.7006,-29.6021],[-68.8231,-29.6331],[-69.0129,-29.6224],[-69.0195,-29.5223],[-68.9793,-29.453],[-68.9752,-29.3429],[-68.9419,-29.3106],[-69.0002,-29.2334],[-69.0041,-29.1503],[-68.9134,-29.0021],[-69.103,-28.7777],[-69.1902,-28.594],[-69.473,-28.4264],[-69.543,-28.4375],[-69.654,-28.401],[-69.5101,-28.2675],[-69.4905,-28.1984],[-69.4203,-28.2126]]]}},{"type":"Feature","properties":{"code":"AR-J","name":"San Juan"},"geometry":{"type":"Polygon","coordinates":[[[-69.9577,-30.0927],[-69.9804,-30.0725],[-69.928,-29.9768],[-69.9156,-29.8056],[-69.9291,-29.7183],[-69.9732,-29.6661],[-70.0407,-29.2975],[-69.9109,-29.1432],[-69.8039,-29.0987],[-69.8028,-28.9399],[-69.7328,-28.7943],[-69.7534,-28.6734],[-69.6784,-28.5739],[-69.654,-28.401],[-69.543,-28.4375],[-69.473,-28.4264],[-69.4207,-28.4773],[-69.3363,-28.4848],[-69.1618,-28.6214],[-69.103,-28.7777],[-68.9086,-29.0141],[-68.9988,-29.1179],[-69.0002,-29.2334],[-68.9419,-29.3106],[-68.9789,-29.3563],[-69.022,-29.6117],[-68.8231,-29.6331],[-68.7006,-29.6021],[-68.605,-29.6453],[-68.3355,-29.6872],[-68.1562,-29.8491],[-68.0766,-29.8827],[-67.9137,-30.0507],[-67.6345,-30.2479],[-67.5662,-30.3797],[-67.1923,-30.714],[-67.0836,-30.8916],[-67.1147,-31.0385],[-67.06,-31.0818],[-67.1039,-31.3543],[-67.0489,-31.5233],[-66.9448,-31.6157],[-66.8545,-31.6357],[-66.8367,-31.7475],[-66.7821,-31.7744],[-66.7305,-31.8766],[-67.367,-31.858],[-67.393,-32.2622],[-67.4933,-32.2135],[-67.7391,-32.2529],[-67.8318,-32.2392],[-67.9855,-32.0884],[-68.0558,-32.0684],[-68.2516,-32.1396],[-68.3937,-32.1501],[-68.6896,-32.3351],[-68.8862,-32.3366],[-68.9222,-32.0762],[-69.0391,-32.0708],[-69.175,-31.9557],[-69.2918,-32.0539],[-69.4477,-32.0528],[-69.6081,-32.1203],[-69.6623,-32.258],[-69.9812,-32.3054],[-70.2561,-32.3143],[-70.3097,-32.2883],[-70.3352,-32.14],[-70.3875,-32.0417],[-70.2847,-32.0468],[-70.2445,-31.9422],[-70.3133,-31.8821],[-70.4283,-31.8701],[-70.4752,-31.8201],[-70.4863,-31.7312],[-70.5898,-31.5677],[-70.569,-31.3042],[-70.5359,-31.1726],[-70.4798,-31.0967],[-70.4086,-31.15],[-70.3398,-31.0417],[-70.2666,-31.0365],[-70.3392,-30.9382],[-70.2171,-30.5151],[-70.1439,-30.4396],[-70.1734,-30.3647],[-70.0302,-30.3971],[-69.9646,-30.3748],[-69.9121,-30.3295],[-69.8907,-30.229],[-69.8358,-30.1619],[-69.8807,-30.0998],[-69.9577,-30.0927]]]}},{"type":"Feature","properties":{"code":"AR-M","name":"Mendoza"},"geometry":{"type":"Polygon","coordinates":[[[-70.01,-33.2991],[-70.1095,-33.1696],[-70.1112,-33.0384],[-70.0425,-32.9927],[-70.0002,-32.8766],[-70.1557,-32.7384],[-70.1811,-32.6076],[-70.1377,-32.569],[-70.1725,-32.4649],[-70.2453,-32.404],[-70.2561,-32.3143],[-69.6623,-32.258],[-69.6081,-32.1203],[-69.4477,-32.0528],[-69.2918,-32.0539],[-69.1843,-31.9568],[-69.1353,-31.9683],[-69.025,-32.0773],[-68.9222,-32.0762],[-68.8862,-32.3366],[-68.6896,-32.3351],[-68.3937,-32.1501],[-68.0207,-32.069],[-67.8318,-32.2392],[-67.4672,-32.2179],[-67.393,-32.2622],[-67.3617,-32.3968],[-67.3207,-32.431],[-67.2584,-32.6536],[-67.1921,-32.7611],[-67.227,-32.9161],[-67.1519,-33.4291],[-67.0197,-33.6165],[-66.9296,-33.8379],[-66.844,-33.8963],[-66.7471,-34.0642],[-66.7592,-34.1845],[-66.8214,-34.2293],[-66.8126,-34.3846],[-66.738,-34.6154],[-66.5461,-34.9249],[-66.5536,-34.9972],[-66.5051,-35.1242],[-66.5211,-35.4942],[-66.6082,-35.8299],[-66.6172,-35.9999],[-68.2463,-35.9993],[-68.2822,-36.0211],[-68.2932,-36.1283],[-68.2568,-36.2768],[-68.2494,-37.557],[-68.4275,-37.5378],[-68.5068,-37.4474],[-68.6782,-37.4263],[-68.7567,-37.3717],[-68.9851,-37.3638],[-69.0201,-37.3443],[-69.061,-37.236],[-69.1547,-37.1827],[-69.3024,-37.1498],[-69.531,-37.1736],[-69.7034,-37.1122],[-69.8159,-36.9974],[-69.788,-36.9602],[-69.7901,-36.8632],[-69.9072,-36.7956],[-69.956,-36.7058],[-70.0677,-36.6118],[-70.163,-36.5816],[-70.2603,-36.3728],[-70.3415,-36.377],[-70.378,-36.3253],[-70.3588,-36.1994],[-70.4307,-36.1294],[-70.3803,-36.046],[-70.4127,-35.9689],[-70.3837,-35.9132],[-70.4208,-35.9038],[-70.4202,-35.8684],[-70.3573,-35.8152],[-70.4215,-35.6597],[-70.4082,-35.5062],[-70.4718,-35.3794],[-70.4284,-35.3571],[-70.4753,-35.3141],[-70.5604,-35.2984],[-70.5789,-35.2597],[-70.5429,-35.2093],[-70.3866,-35.1667],[-70.3537,-34.9533],[-70.2767,-34.7982],[-70.3163,-34.7456],[-70.2522,-34.6958],[-70.2278,-34.5853],[-70.0676,-34.4146],[-70.0576,-34.2912],[-69.9116,-34.2846],[-69.8289,-34.2333],[-69.8732,-34.14],[-69.8558,-33.9847],[-69.9096,-33.9557],[-69.9143,-33.7719],[-69.86,-33.7264],[-69.8954,-33.6623],[-69.8788,-33.558],[-69.8415,-33.5328],[-69.7877,-33.3794],[-69.8139,-33.2895],[-69.8697,-33.2496],[-69.9406,-33.2429],[-70.01,-33.2991]]]}},{"type":"Feature","properties":{"code":"AR-Q","name":"Neuqu\u00e9n"},"geometry":{"type":"Polygon","coordinates":[[[-70.4991,-36.1636],[-70.4307,-36.1294],[-70.372,-36.1722],[-70.3824,-36.3066],[-70.3562,-36.366],[-70.2603,-36.3728],[-70.163,-36.5816],[-70.0677,-36.6118],[-69.956,-36.7058],[-69.9072,-36.7956],[-69.7901,-36.8632],[-69.788,-36.9602],[-69.8159,-36.9974],[-69.7034,-37.1122],[-69.531,-37.1736],[-69.3024,-37.1498],[-69.1547,-37.1827],[-69.061,-37.236],[-69.0201,-37.3443],[-68.9851,-37.3638],[-68.7567,-37.3717],[-68.6782,-37.4263],[-68.5068,-37.4474],[-68.4275,-37.5378],[-68.2494,-37.557],[-68.2521,-38.6593],[-68.0104,-38.9755],[-68.2584,-38.9963],[-68.3209,-38.9618],[-68.6046,-39.1296],[-68.6715,-39.2136],[-68.7977,-39.2935],[-68.8352,-39.3743],[-68.9622,-39.4887],[-69.2445,-39.5855],[-69.364,-39.7172],[-69.5161,-39.8219],[-69.6804,-39.8231],[-69.9447,-39.9474],[-70.0956,-40.4413],[-70.1802,-40.4656],[-70.2389,-40.5498],[-70.4448,-40.5669],[-70.5363,-40.5122],[-70.6805,-40.5902],[-70.8121,-40.585],[-70.9715,-40.6404],[-71.1302,-40.7795],[-71.0263,-40.9068],[-71.148,-41.0512],[-71.2973,-41.0951],[-71.5537,-41.032],[-71.8674,-41.0102],[-71.8514,-40.9383],[-71.9556,-40.7204],[-71.8531,-40.6164],[-71.8618,-40.5497],[-71.7964,-40.4145],[-71.7293,-40.4214],[-71.674,-40.3241],[-71.6867,-40.2885],[-71.7427,-40.2965],[-71.816,-40.2272],[-71.814,-40.0929],[-71.6837,-40.099],[-71.6805,-40.0095],[-71.6166,-39.9099],[-71.6846,-39.8335],[-71.7144,-39.6014],[-71.6898,-39.5684],[-71.6178,-39.6166],[-71.5035,-39.6017],[-71.4957,-39.5656],[-71.542,-39.5323],[-71.4617,-39.4338],[-71.4765,-39.383],[-71.412,-39.318],[-71.4302,-38.9991],[-71.3999,-38.9105],[-71.236,-38.8116],[-71.0484,-38.7466],[-70.945,-38.7472],[-70.8738,-38.6914],[-70.8834,-38.6431],[-70.8343,-38.5644],[-70.9738,-38.4247],[-71.0197,-38.2343],[-71.0074,-38.071],[-71.185,-37.7061],[-71.1908,-37.64],[-71.1279,-37.5844],[-71.1177,-37.4665],[-71.2056,-37.2927],[-71.1465,-37.2148],[-71.1393,-37.1333],[-71.0891,-37.1034],[-71.2071,-36.9724],[-71.1357,-36.9515],[-71.1952,-36.8391],[-71.1453,-36.6882],[-71.0574,-36.6876],[-71.0433,-36.4843],[-70.935,-36.4726],[-70.8904,-36.4004],[-70.8072,-36.4334],[-70.7186,-36.4146],[-70.7105,-36.2658],[-70.6044,-36.1946],[-70.5814,-36.1432],[-70.4991,-36.1636]]]}},{"type":"Feature","properties":{"code":"AR-U","name":"Chubut"},"geometry":{"type":"Polygon","coordinates":[[[-71.9238,-42.1769],[-71.7494,-42.1044],[-71.7396,-42.0319],[-71.7693,-41.9996],[-65.1272,-42.0002],[-65.0546,-42.0107],[-64.9724,-42.1269],[-64.8573,-42.1936],[-64.6029,-42.2582],[-64.4809,-42.2547],[-64.4642,-42.2753],[-64.6023,-42.4221],[-64.4451,-42.4467],[-64.1036,-42.4278],[-64.0516,-42.3722],[-64.0684,-42.2696],[-64.3397,-42.2374],[-64.1622,-42.2094],[-63.8709,-42.0837],[-63.7686,-42.0777],[-63.598,-42.3],[-63.5793,-42.593],[-63.6333,-42.7146],[-63.6203,-42.7512],[-63.6715,-42.8022],[-64.1079,-42.8837],[-64.2513,-42.7751],[-64.2024,-42.6354],[-64.3881,-42.5173],[-64.6149,-42.5153],[-64.7347,-42.5579],[-64.804,-42.6215],[-64.946,-42.6542],[-65.0189,-42.7468],[-64.9971,-42.7848],[-64.6455,-42.9254],[-64.5032,-42.9373],[-64.4335,-42.9763],[-64.3158,-42.9505],[-64.3021,-42.9809],[-64.4476,-43.0686],[-64.7652,-43.1474],[-64.9439,-43.2394],[-65.0323,-43.2994],[-65.0391,-43.3956],[-65.3308,-43.6633],[-65.3182,-43.8322],[-65.272,-43.964],[-65.2286,-43.9753],[-65.242,-44.0273],[-65.1867,-44.0355],[-65.2379,-44.0842],[-65.2148,-44.1374],[-65.2826,-44.1545],[-65.3087,-44.2001],[-65.2169,-44.3664],[-65.3316,-44.4608],[-65.2793,-44.5163],[-65.3731,-44.5162],[-65.3612,-44.5404],[-65.3933,-44.5519],[-65.3687,-44.5861],[-65.4618,-44.5766],[-65.4609,-44.601],[-65.6432,-44.668],[-65.7271,-44.8096],[-65.7154,-44.87],[-65.5214,-44.9319],[-65.6054,-44.9727],[-65.6026,-45.0277],[-65.6906,-45.0627],[-65.7514,-45.0236],[-65.8174,-45.0403],[-65.8416,-45.0032],[-65.9362,-45.0487],[-66.0164,-45.0031],[-66.2004,-44.9929],[-66.2816,-45.0576],[-66.3497,-45.0434],[-66.4966,-45.0884],[-66.5253,-45.1319],[-66.4548,-45.1493],[-66.4733,-45.1687],[-66.5878,-45.1393],[-66.524,-45.2161],[-66.9293,-45.2565],[-67.0648,-45.3499],[-67.3319,-45.6135],[-67.3646,-45.7866],[-67.4559,-45.825],[-67.5817,-46.0],[-71.6492,-45.9994],[-71.6123,-45.9705],[-71.6244,-45.9341],[-71.7585,-45.8482],[-71.749,-45.7868],[-71.7985,-45.7399],[-71.7824,-45.6418],[-71.7428,-45.5943],[-71.7651,-45.5724],[-71.7137,-45.5332],[-71.4891,-45.4985],[-71.5083,-45.4084],[-71.3894,-45.3708],[-71.3115,-45.2995],[-71.3172,-45.2672],[-71.4872,-45.1233],[-71.5887,-44.9781],[-71.7024,-44.9737],[-71.7825,-44.9274],[-71.8894,-44.9472],[-72.0735,-44.9022],[-72.0887,-44.7828],[-72.0478,-44.7548],[-71.8546,-44.791],[-71.7627,-44.7544],[-71.6312,-44.78],[-71.4971,-44.7429],[-71.2978,-44.7956],[-71.2382,-44.7479],[-71.2349,-44.6388],[-71.1316,-44.5706],[-71.1227,-44.5303],[-71.2098,-44.4276],[-71.822,-44.4032],[-71.8606,-44.3771],[-71.804,-44.3148],[-71.8318,-44.2702],[-71.8051,-44.2052],[-71.8587,-44.1078],[-71.7622,-44.0641],[-71.6599,-43.9263],[-71.7618,-43.8284],[-71.755,-43.7714],[-71.8192,-43.7581],[-71.7092,-43.6844],[-71.7143,-43.6022],[-71.8007,-43.5442],[-71.8738,-43.5389],[-71.8688,-43.4626],[-71.9551,-43.4435],[-71.9017,-43.322],[-71.7507,-43.2953],[-71.743,-43.1901],[-71.8619,-43.1332],[-72.0544,-43.1054],[-72.1485,-42.9987],[-72.1127,-42.8638],[-72.1432,-42.5571],[-72.0392,-42.4812],[-72.0752,-42.4338],[-72.0699,-42.35],[-72.1337,-42.2876],[-72.0098,-42.1247],[-71.9238,-42.1769]]]}},{"type":"Feature","properties":{"code":"AR-R","name":"R\u00edo Negro"},"geometry":{"type":"Polygon","coordinates":[[[-71.7693,-41.9996],[-71.794,-41.8675],[-71.9259,-41.653],[-71.8533,-41.5673],[-71.8881,-41.5128],[-71.904,-41.3677],[-71.854,-41.0789],[-71.8674,-41.0102],[-71.5537,-41.032],[-71.2973,-41.0951],[-71.148,-41.0512],[-71.0263,-40.9068],[-71.1302,-40.7795],[-70.9715,-40.6404],[-70.8121,-40.585],[-70.6805,-40.5902],[-70.5363,-40.5122],[-70.4448,-40.5669],[-70.2389,-40.5498],[-70.1802,-40.4656],[-70.0956,-40.4413],[-69.9447,-39.9474],[-69.6804,-39.8231],[-69.5161,-39.8219],[-69.364,-39.7172],[-69.2445,-39.5855],[-68.9622,-39.4887],[-68.8352,-39.3743],[-68.7977,-39.2935],[-68.6715,-39.2136],[-68.6046,-39.1296],[-68.3209,-38.9618],[-68.2584,-38.9963],[-68.0104,-38.9755],[-68.2521,-38.6593],[-68.2494,-37.557],[-67.8503,-37.6002],[-67.7486,-37.6691],[-67.7118,-37.7348],[-67.7237,-37.8169],[-67.8483,-37.9078],[-67.8717,-38.0072],[-67.8449,-38.0569],[-67.7057,-38.1006],[-67.592,-38.2471],[-67.376,-38.2555],[-67.1766,-38.2226],[-67.1358,-38.3381],[-67.0698,-38.409],[-66.6479,-38.5574],[-66.5935,-38.6073],[-66.562,-38.7016],[-66.3919,-38.7342],[-66.2152,-38.7166],[-65.9602,-38.7421],[-65.6896,-38.8179],[-65.563,-38.7758],[-65.3674,-38.8384],[-64.9702,-38.8036],[-64.4715,-38.8537],[-64.0102,-38.9998],[-63.9082,-39.0922],[-63.7821,-39.1284],[-63.7112,-39.2002],[-63.5164,-39.306],[-63.3886,-39.3258],[-63.3874,-40.7091],[-63.103,-40.7539],[-62.8615,-40.9384],[-62.8016,-41.0417],[-63.0995,-41.1549],[-63.7794,-41.1588],[-64.0629,-41.0413],[-64.0621,-40.9994],[-64.1743,-41.009],[-64.6448,-40.8464],[-64.9112,-40.8238],[-64.868,-40.7922],[-64.7552,-40.8043],[-64.7536,-40.7765],[-64.8003,-40.7589],[-64.7716,-40.7365],[-64.8905,-40.706],[-64.9818,-40.7233],[-64.9225,-40.7297],[-64.9088,-40.7701],[-65.0109,-40.7673],[-65.1219,-40.8337],[-65.1757,-40.9692],[-65.1049,-41.3298],[-65.0612,-41.4484],[-64.9914,-41.5241],[-65.0372,-41.6651],[-64.9999,-41.7934],[-65.0745,-41.9509],[-65.0546,-42.0107],[-71.7693,-41.9996]]]}},{"type":"Feature","properties":{"code":"AR-Z","name":"Santa Cruz"},"geometry":{"type":"Polygon","coordinates":[[[-71.9125,-47.2345],[-71.8633,-47.1966],[-71.8741,-47.1425],[-72.0052,-47.0619],[-71.9148,-46.9985],[-71.9704,-46.9485],[-71.9501,-46.814],[-71.8341,-46.7886],[-71.6802,-46.6596],[-71.6805,-46.5381],[-71.7519,-46.393],[-71.7633,-46.2445],[-71.9126,-46.1421],[-71.7702,-46.1126],[-71.6492,-45.9994],[-67.5817,-46.0],[-67.6225,-46.1638],[-67.5409,-46.4013],[-67.4232,-46.5674],[-67.13,-46.7066],[-67.0332,-46.8191],[-66.7864,-47.0066],[-66.6288,-47.0512],[-66.5052,-47.0408],[-66.2005,-47.0896],[-65.9796,-47.0662],[-65.8812,-47.0966],[-65.7449,-47.2042],[-65.713,-47.3415],[-65.7357,-47.5095],[-65.8456,-47.7422],[-66.0321,-47.7395],[-66.2739,-47.8595],[-66.3892,-47.8639],[-66.3011,-47.8725],[-66.0226,-47.771],[-65.9018,-47.77],[-65.8534,-47.8796],[-65.7617,-47.9119],[-65.7951,-47.9359],[-65.762,-47.9486],[-65.9274,-47.9414],[-65.9684,-48.0472],[-65.9032,-48.0785],[-65.9172,-48.1138],[-66.1086,-48.1233],[-66.1595,-48.1853],[-66.3169,-48.2643],[-66.355,-48.3212],[-66.3411,-48.3527],[-66.4486,-48.3503],[-66.5011,-48.414],[-66.651,-48.4311],[-66.8578,-48.5483],[-66.8664,-48.5898],[-67.1143,-48.6737],[-67.1983,-48.8184],[-67.4057,-48.9042],[-67.5565,-49.0158],[-67.6326,-49.13],[-67.6099,-49.1781],[-67.7323,-49.2747],[-67.7119,-49.3156],[-67.7743,-49.3744],[-67.8309,-49.3796],[-67.7252,-49.3907],[-67.6632,-49.2672],[-67.6077,-49.2651],[-67.7001,-49.5343],[-67.732,-49.7813],[-67.8332,-49.9545],[-68.0764,-50.0873],[-68.3419,-50.1176],[-68.654,-49.7579],[-68.7397,-49.7277],[-68.6641,-49.7675],[-68.5773,-49.9276],[-68.6744,-49.9684],[-68.8754,-49.9625],[-69.0135,-50.0077],[-68.5835,-49.9703],[-68.5189,-50.0157],[-68.4938,-50.0801],[-68.3499,-50.1488],[-68.4381,-50.2008],[-68.8764,-50.3306],[-69.0765,-50.5602],[-69.15,-50.7421],[-69.1368,-50.9035],[-69.4107,-51.0839],[-69.1678,-50.9782],[-68.9626,-51.5602],[-69.0476,-51.5632],[-69.1196,-51.6048],[-69.3772,-51.5569],[-69.6168,-51.6252],[-69.3046,-51.5935],[-69.157,-51.6349],[-69.199,-51.6866],[-69.0289,-51.6142],[-68.9735,-51.62],[-68.6851,-52.005],[-68.3656,-52.3062],[-68.3625,-52.3391],[-68.4178,-52.3861],[-68.4425,-52.3795],[-68.4545,-52.2999],[-68.8205,-52.2432],[-69.2123,-52.138],[-69.4853,-52.1325],[-69.9528,-52.0074],[-71.9177,-51.9901],[-71.9652,-51.9706],[-71.9485,-51.896],[-71.9817,-51.8449],[-72.1421,-51.7394],[-72.3007,-51.6915],[-72.3309,-51.5994],[-72.4501,-51.5527],[-72.3512,-51.476],[-72.3205,-51.3126],[-72.2588,-51.2452],[-72.3822,-51.1606],[-72.4046,-51.1058],[-72.2934,-51.0292],[-72.2659,-50.9607],[-72.2635,-50.8363],[-72.3474,-50.7432],[-72.3028,-50.6489],[-72.506,-50.6013],[-72.6626,-50.6678],[-72.7558,-50.6164],[-73.0517,-50.7578],[-73.1777,-50.7495],[-73.1922,-50.6414],[-73.2619,-50.5566],[-73.2843,-50.3331],[-73.3463,-50.2437],[-73.5306,-50.1408],[-73.5315,-50.0831],[-73.4786,-50.0095],[-73.5684,-49.9201],[-73.4651,-49.76],[-73.1967,-49.6824],[-73.0597,-49.555],[-73.0574,-49.4759],[-73.1187,-49.3924],[-73.0976,-49.2666],[-73.1832,-49.2391],[-73.1713,-49.1893],[-73.0097,-48.9904],[-72.7812,-48.9339],[-72.6188,-48.8197],[-72.578,-48.7219],[-72.6147,-48.51],[-72.5768,-48.4521],[-72.2951,-48.3333],[-72.3256,-48.2855],[-72.3095,-48.2112],[-72.343,-48.0705],[-72.5094,-47.973],[-72.5439,-47.9148],[-72.3444,-47.6023],[-72.3209,-47.4984],[-72.3705,-47.4745],[-72.3612,-47.451],[-72.1706,-47.4075],[-72.0382,-47.287],[-72.0303,-47.1975],[-71.9125,-47.2345]]]}},{"type":"Feature","properties":{"code":"AR-V","name":"Tierra del Fuego"},"geometry":{"type":"MultiPolygon","coordinates":[[[[-68.6541,-54.8862],[-68.642,-54.7992],[-68.5682,-54.8784],[-68.6541,-54.8862]]],[[[-68.6419,-54.783],[-68.6276,-52.6396],[-68.3114,-52.912],[-68.2258,-53.1025],[-68.2804,-53.0154],[-68.3496,-53.0162],[-68.5207,-53.1206],[-68.5548,-53.1671],[-68.5508,-53.2385],[-68.4514,-53.2977],[-68.1114,-53.3438],[-68.0477,-53.5232],[-67.9836,-53.6013],[-67.7025,-53.7747],[-67.7088,-53.8046],[-67.5582,-53.8362],[-67.5878,-53.8693],[-67.5715,-53.908],[-67.1408,-54.1234],[-66.7666,-54.2498],[-66.4822,-54.4658],[-65.8442,-54.6474],[-65.6981,-54.6624],[-65.3093,-54.6266],[-65.1419,-54.6469],[-65.1937,-54.6902],[-65.2434,-54.821],[-65.359,-54.9267],[-65.4627,-54.8845],[-65.4997,-54.933],[-65.6151,-54.9342],[-65.6691,-54.9718],[-65.7189,-54.9093],[-65.9662,-54.9021],[-65.9876,-54.9107],[-65.9508,-54.9399],[-65.9934,-54.9724],[-66.3171,-54.995],[-66.4507,-55.052],[-66.6301,-55.0311],[-66.8028,-54.9426],[-67.031,-54.9052],[-67.932,-54.8625],[-68.3021,-54.7922],[-68.3282,-54.8424],[-68.5203,-54.8522],[-68.6419,-54.783]]],[[[-63.8884,-54.7299],[-63.8121,-54.7299],[-63.9668,-54.815],[-63.9908,-54.8112],[-63.9796,-54.7574],[-64.2445,-54.8371],[-64.2707,-54.8249],[-64.2516,-54.777],[-64.3111,-54.7776],[-64.4451,-54.8434],[-64.5066,-54.8273],[-64.6244,-54.9037],[-64.6898,-54.9006],[-64.6686,-54.8665],[-64.7587,-54.8323],[-64.6831,-54.7702],[-64.6037,-54.7981],[-64.5226,-54.7817],[-64.5048,-54.7709],[-64.5699,-54.7221],[-64.5423,-54.7156],[-64.4979,-54.7504],[-64.4071,-54.7438],[-64.3844,-54.7844],[-64.3639,-54.706],[-64.1872,-54.747],[-64.1588,-54.7156],[-64.0933,-54.7156],[-64.066,-54.7504],[-63.8884,-54.7299]]]]}},{"type":"Feature","properties":{"code":"AR-B","name":"Buenos Aires"},"geometry":{"type":"MultiPolygon","coordinates":[[[[-56.6683,-36.7364],[-56.6864,-36.9277],[-57.0559,-37.4127],[-57.4874,-37.8322],[-57.5289,-37.9137],[-57.5584,-38.1209],[-58.1557,-38.4301],[-59.0632,-38.6938],[-59.6324,-38.7838],[-59.7969,-38.8385],[-61.1434,-39.0011],[-61.428,-38.9825],[-61.5181,-39.0115],[-61.7228,-38.9682],[-61.839,-38.9809],[-62.064,-38.9229],[-62.1573,-38.8105],[-62.3798,-38.7984],[-62.3739,-38.9],[-62.336,-38.8969],[-62.3205,-38.9607],[-62.274,-38.9545],[-62.3578,-39.1022],[-62.3392,-39.1941],[-62.2572,-39.2555],[-62.3256,-39.2547],[-62.1679,-39.2834],[-62.0239,-39.3648],[-62.057,-39.4116],[-62.1883,-39.3107],[-62.2839,-39.3107],[-62.1542,-39.4274],[-62.0558,-39.4519],[-62.1144,-39.8215],[-62.1642,-39.8588],[-62.305,-39.8111],[-62.2839,-39.8526],[-62.3146,-39.8694],[-62.3663,-40.0541],[-62.3392,-40.1127],[-62.3597,-40.1918],[-62.4901,-40.3079],[-62.4149,-40.4621],[-62.3287,-40.4963],[-62.2837,-40.5644],[-62.2642,-40.5515],[-62.2672,-40.6335],[-62.346,-40.5993],[-62.3297,-40.6691],[-62.1815,-40.6266],[-62.2292,-40.6586],[-62.3378,-40.8727],[-62.7513,-41.0442],[-62.8016,-41.0417],[-62.8615,-40.9384],[-63.1178,-40.7461],[-63.3874,-40.7091],[-63.3819,-34.5796],[-63.3736,-34.4136],[-63.3396,-34.3805],[-61.7105,-34.3768],[-60.9631,-33.6772],[-60.9105,-33.5637],[-60.6715,-33.5769],[-60.5668,-33.6403],[-60.4757,-33.6222],[-60.4101,-33.4596],[-60.3478,-33.4101],[-60.3405,-33.3464],[-60.2775,-33.3064],[-60.2941,-33.2566],[-60.1181,-33.3936],[-59.6406,-33.671],[-59.5207,-33.6553],[-59.3926,-33.7394],[-59.2689,-33.7212],[-59.2313,-33.798],[-59.0318,-33.8296],[-58.6385,-34.0485],[-58.447,-34.0069],[-58.3954,-34.0312],[-58.3786,-34.1882],[-58.4602,-34.2729],[-58.5704,-34.2882],[-58.4546,-34.3662],[-58.5115,-34.4359],[-58.4742,-34.5216],[-58.5385,-34.567],[-58.5605,-34.6536],[-58.5416,-34.7103],[-58.444,-34.7749],[-58.315,-34.6572],[-57.965,-34.8245],[-57.871,-34.8299],[-57.522,-35.0132],[-57.2488,-35.2488],[-57.1281,-35.4413],[-57.3526,-35.7275],[-57.3933,-35.863],[-57.3664,-35.9879],[-57.248,-36.1703],[-57.1083,-36.2823],[-56.9377,-36.3508],[-56.9392,-36.3849],[-56.8567,-36.3439],[-56.7679,-36.3439],[-56.776,-36.3064],[-56.7406,-36.3166],[-56.6976,-36.3962],[-56.6683,-36.7364]]],[[[-61.9072,-39.1367],[-61.8617,-39.2099],[-61.8885,-39.2407],[-62.0268,-39.1829],[-62.098,-39.0878],[-61.9072,-39.1367]]],[[[-62.0859,-39.0234],[-62.12,-39.0329],[-62.1195,-39.0022],[-62.0402,-39.0055],[-61.9673,-39.047],[-62.0102,-39.0644],[-62.0859,-39.0234]]],[[[-62.1553,-40.3742],[-62.094,-40.3774],[-62.0285,-40.4549],[-62.1087,-40.5641],[-62.1613,-40.5571],[-62.1657,-40.5094],[-62.2373,-40.5099],[-62.1553,-40.3742]]],[[[-62.119,-40.1307],[-62.0147,-40.1752],[-62.0212,-40.3436],[-62.1332,-40.1811],[-62.119,-40.1307]]]]}},{"type":"Feature","properties":{"code":"AR-C","name":"Ciudad de Buenos Aires"},"geometry":{"type":"Polygon","coordinates":[[[-58.4742,-34.5216],[-58.3788,-34.5725],[-58.315,-34.6572],[-58.444,-34.7749],[-58.5416,-34.7103],[-58.5605,-34.6536],[-58.5385,-34.567],[-58.4742,-34.5216]]]}},{"type":"Feature","properties":{"code":"AR-S","name":"Santa Fe"},"geometry":{"type":"Polygon","coordinates":[[[-59.5974,-28.0004],[-58.8647,-27.9993],[-58.9203,-28.0948],[-59.0599,-28.1294],[-59.0875,-28.1752],[-59.0662,-28.4014],[-59.087,-28.6271],[-59.1944,-28.9214],[-59.1974,-29.0221],[-59.3589,-29.1435],[-59.5113,-29.2076],[-59.5829,-29.3778],[-59.5911,-29.615],[-59.6728,-29.8471],[-59.5953,-30.0492],[-59.6693,-30.2939],[-59.6148,-30.4627],[-59.6606,-30.7361],[-60.1637,-31.4421],[-60.4141,-31.6735],[-60.6478,-31.716],[-60.674,-31.8529],[-60.72,-31.9223],[-60.6618,-32.0693],[-60.7069,-32.1562],[-60.767,-32.5783],[-60.7058,-32.6795],[-60.6755,-32.8465],[-60.5521,-33.0611],[-60.2941,-33.2566],[-60.2775,-33.3064],[-60.3405,-33.3464],[-60.3478,-33.4101],[-60.4101,-33.4596],[-60.4306,-33.5479],[-60.4999,-33.634],[-60.5829,-33.6352],[-60.6776,-33.5757],[-60.9105,-33.5637],[-60.9631,-33.6772],[-61.7105,-34.3768],[-62.8538,-34.3821],[-61.9199,-33.1141],[-61.7628,-32.9998],[-61.7353,-32.8123],[-61.833,-32.6769],[-61.8945,-32.6588],[-61.8661,-32.5862],[-61.9141,-32.4629],[-62.0146,-32.3863],[-62.0782,-32.2441],[-62.2186,-32.1385],[-62.1841,-31.9628],[-62.2375,-31.731],[-62.1216,-31.6086],[-61.8571,-30.7315],[-62.1253,-30.4577],[-62.1341,-30.4169],[-61.7099,-28.0004],[-59.5974,-28.0004]]]}},{"type":"Feature","properties":{"code":"AR-T","name":"Tucum\u00e1n"},"geometry":{"type":"Polygon","coordinates":[[[-65.6587,-26.0746],[-65.4421,-26.1201],[-65.3144,-26.076],[-65.2528,-26.1724],[-64.9457,-26.2741],[-64.7674,-26.2114],[-64.4863,-26.2202],[-64.524,-26.4466],[-64.5006,-26.6776],[-64.5815,-26.6765],[-64.6221,-26.7919],[-64.6744,-26.8048],[-64.8798,-27.3092],[-65.0636,-27.4724],[-64.9696,-27.5137],[-65.0694,-27.6007],[-64.9992,-27.7781],[-65.0915,-27.8991],[-65.2276,-27.9235],[-65.349,-27.8633],[-65.497,-27.9612],[-65.558,-28.0544],[-65.6646,-27.9452],[-65.703,-27.8179],[-65.8508,-27.7802],[-65.8779,-27.6972],[-65.9293,-27.6543],[-65.9819,-27.3938],[-66.1946,-27.3194],[-65.8838,-26.9403],[-65.851,-26.7528],[-65.8726,-26.6991],[-66.152,-26.5379],[-66.1002,-26.3215],[-66.0538,-26.2535],[-65.7118,-26.2954],[-65.6587,-26.0746]]]}},{"type":"Feature","properties":{"code":"AR-G","name":"Santiago del Estero"},"geometry":{"type":"Polygon","coordinates":[[[-63.3986,-25.6594],[-61.7539,-25.6614],[-61.7223,-25.7442],[-61.7099,-28.0004],[-62.0871,-30.1566],[-62.2426,-29.8056],[-62.2882,-29.7767],[-63.3841,-29.7713],[-63.3963,-29.7285],[-63.4579,-29.7143],[-63.4627,-29.6552],[-63.8077,-29.6498],[-64.0276,-29.5452],[-64.0491,-29.473],[-64.2537,-29.4243],[-64.8825,-29.5571],[-65.0354,-29.2927],[-65.0926,-28.7213],[-65.18,-28.6451],[-65.0722,-28.4241],[-65.0791,-28.2746],[-65.1691,-27.9097],[-65.0726,-27.8897],[-65.0313,-27.7904],[-64.9992,-27.7781],[-65.0694,-27.6007],[-64.9696,-27.5137],[-65.0636,-27.4724],[-64.8798,-27.3092],[-64.6744,-26.8048],[-64.6221,-26.7919],[-64.5815,-26.6765],[-64.5006,-26.6776],[-64.5233,-26.4375],[-64.425,-26.0276],[-64.1918,-25.5799],[-63.9244,-25.6523],[-63.3986,-25.6594]]]}},{"type":"Feature","properties":{"code":"AR-D","name":"San Luis"},"geometry":{"type":"Polygon","coordinates":[[[-65.0866,-35.0018],[-65.0878,-35.9988],[-66.6231,-35.9979],[-66.5211,-35.4942],[-66.5051,-35.1242],[-66.572,-34.8529],[-66.738,-34.6154],[-66.8126,-34.3846],[-66.8214,-34.2293],[-66.7592,-34.1845],[-66.7471,-34.0642],[-66.844,-33.8963],[-66.9296,-33.8379],[-67.0197,-33.6165],[-67.1519,-33.4291],[-67.227,-32.9161],[-67.1921,-32.7611],[-67.3899,-32.3043],[-67.367,-31.858],[-66.7305,-31.8766],[-66.3739,-31.9338],[-66.2172,-31.9254],[-66.0544,-31.8714],[-65.9073,-31.9007],[-65.6715,-31.8857],[-65.3105,-32.0611],[-65.2451,-32.1251],[-65.1897,-32.3276],[-64.9228,-32.2992],[-64.8832,-32.6195],[-65.0147,-32.9482],[-65.0325,-33.1113],[-65.0911,-33.1368],[-65.1317,-33.2055],[-65.0869,-33.9624],[-65.0866,-35.0018]]]}},{"type":"Feature","properties":{"code":"AR-L","name":"La Pampa"},"geometry":{"type":"Polygon","coordinates":[[[-65.0958,-36.0013],[-65.0866,-35.0018],[-63.3841,-35.0021],[-63.3886,-39.3258],[-63.5164,-39.306],[-63.7112,-39.2002],[-63.7821,-39.1284],[-63.9082,-39.0922],[-64.0102,-38.9998],[-64.4715,-38.8537],[-64.9702,-38.8036],[-65.3674,-38.8384],[-65.563,-38.7758],[-65.6896,-38.8179],[-65.9602,-38.7421],[-66.2152,-38.7166],[-66.3919,-38.7342],[-66.562,-38.7016],[-66.5935,-38.6073],[-66.6479,-38.5574],[-67.0698,-38.409],[-67.1358,-38.3381],[-67.1766,-38.2226],[-67.376,-38.2555],[-67.592,-38.2471],[-67.7057,-38.1006],[-67.8449,-38.0569],[-67.8717,-38.0072],[-67.8483,-37.9078],[-67.7237,-37.8169],[-67.7118,-37.7348],[-67.7486,-37.6691],[-67.8503,-37.6002],[-68.2494,-37.557],[-68.2568,-36.2768],[-68.2932,-36.1283],[-68.2661,-36.0065],[-65.0958,-36.0013]]]}},{"type":"Feature","properties":{"code":"AR-X","name":"C\u00f3rdoba"},"geometry":{"type":"Polygon","coordinates":[[[-62.0871,-30.1566],[-62.1321,-30.441],[-61.8571,-30.7315],[-62.1216,-31.6086],[-62.2359,-31.7198],[-62.1841,-31.9628],[-62.2186,-32.1385],[-62.0782,-32.2441],[-62.0146,-32.3863],[-61.917,-32.4587],[-61.8661,-32.5862],[-61.8945,-32.6588],[-61.833,-32.6769],[-61.7423,-32.797],[-61.7803,-33.0299],[-61.9199,-33.1141],[-62.8538,-34.3821],[-63.3396,-34.3805],[-63.3736,-34.4136],[-63.3841,-35.0021],[-65.0866,-35.0018],[-65.0869,-33.9624],[-65.1317,-33.2055],[-65.0911,-33.1368],[-65.0325,-33.1113],[-65.0147,-32.9482],[-64.8832,-32.6195],[-64.9194,-32.3082],[-65.1897,-32.3276],[-65.2451,-32.1251],[-65.3105,-32.0611],[-65.6406,-31.8932],[-65.7596,-31.8855],[-65.7673,-31.0962],[-65.4019,-30.1402],[-65.1382,-30.0631],[-64.9434,-29.8783],[-64.9511,-29.579],[-64.2537,-29.4243],[-64.0491,-29.473],[-64.0276,-29.5452],[-63.8077,-29.6498],[-63.4627,-29.6552],[-63.4579,-29.7143],[-63.3963,-29.7285],[-63.3841,-29.7713],[-62.2882,-29.7767],[-62.2426,-29.8056],[-62.0871,-30.1566]]]}}]}