{"type":"FeatureCollection","features":[{"type":"Feature","properties":{"code":"FJI","name":"Fiji"},"geometry":{"type":"MultiPolygon","coordinates":[[[[180,-16.067],[180,-16.555],[178.725,-17.012],[178.597,-16.639],[180,-16.067]]],[[[178.126,-17.505],[178.718,-17.628],[178.553,-18.151],[177.381,-18.164],[177.671,-17.381],[178.126,-17.505]]],[[[-179.793,-16.021],[-179.917,-16.502],[-180,-16.555],[-180,-16.067],[-179.793,-16.021]]]]}},{"type":"Feature","properties":{"code":"TZA","name":"Tanzania"},"geometry":{"type":"Polygon","coordinates":[[[33.904,-0.95],[37.699,-3.097],[37.767,-3.677],[39.202,-4.677],[38.741,-5.909],[39.44,-6.84],[39.187,-8.486],[40.317,-10.317],[39.521,-10.897],[36.514,-11.721],[34.56,-11.52],[33.74,-9.417],[30.74,-8.34],[29.62,-6.52],[29.34,-4.5],[30.752,-3.359],[30.419,-1.135],[33.904,-0.95]]]}},{"type":"Feature","properties":{"code":"SAH","name":"W. Sahara"},"geometry":{"type":"Polygon","coordinates":[[[-8.666,27.656],[-8.687,25.881],[-11.969,25.933],[-11.937,23.375],[-12.874,23.285],[-12.929,21.327],[-17.063,21.0],[-17.02,21.422],[-14.751,21.501],[-13.891,23.691],[-12.501,24.77],[-11.393,26.883],[-8.795,27.121],[-8.666,27.656]]]}},{"type":"Feature","properties":{"code":"CAN","name":"Canada"},"geometry":{"type":"MultiPolygon","coordinates":[[[[-122.84,49],[-127.436,50.831],[-127.85,52.33],[-129.13,52.755],[-129.305,53.562],[-130.515,54.288],[-130.008,55.916],[-131.708,56.552],[-135.476,59.788],[-137.452,58.905],[-139.039,60],[-140.998,60.306],[-140.986,69.712],[-136.504,68.898],[-129.795,70.194],[-129.108,69.779],[-128.138,70.484],[-125.756,69.481],[-124.425,70.158],[-124.29,69.4],[-121.472,69.798],[-115.247,68.906],[-113.898,68.399],[-115.305,67.903],[-109.946,67.981],[-108.88,67.381],[-107.792,67.887],[-108.813,68.312],[-108.167,68.654],[-106.15,68.8],[-101.454,67.647],[-98.443,67.782],[-98.559,68.404],[-97.669,68.579],[-96.12,68.239],[-96.126,67.293],[-95.489,68.091],[-94.685,68.064],[-94.233,69.069],[-96.471,70.09],[-96.391,71.195],[-95.209,71.921],[-92.878,71.319],[-91.52,70.191],[-92.407,69.7],[-90.547,69.498],[-90.552,68.475],[-89.215,69.259],[-88.02,68.615],[-88.317,67.873],[-87.35,67.199],[-85.577,68.785],[-85.522,69.882],[-82.623,69.658],[-81.28,69.162],[-81.964,68.133],[-81.259,67.597],[-81.387,67.111],[-83.345,66.412],[-85.769,66.558],[-87.323,64.776],[-90.704,63.61],[-90.77,62.96],[-91.933,62.835],[-94.242,60.899],[-94.685,58.949],[-93.215,58.782],[-92.297,57.087],[-90.898,57.285],[-85.012,55.303],[-82.273,55.148],[-82.125,53.277],[-79.913,51.208],[-78.602,52.562],[-79.83,54.668],[-78.229,55.136],[-76.541,56.534],[-77.302,58.052],[-78.517,58.805],[-77.337,59.853],[-78.107,62.32],[-73.84,62.444],[-71.374,61.137],[-69.59,61.061],[-69.288,58.957],[-67.65,58.212],[-66.202,58.767],[-64.584,60.336],[-61.397,56.967],[-61.799,56.339],[-57.333,54.627],[-56.937,53.78],[-55.756,53.27],[-55.683,52.147],[-60.033,50.243],[-66.399,50.229],[-71.105,46.822],[-68.65,48.3],[-65.056,49.233],[-64.171,48.742],[-65.115,48.071],[-64.472,46.238],[-61.521,45.884],[-60.518,47.008],[-59.803,45.92],[-65.364,43.545],[-66.123,43.619],[-66.162,44.465],[-64.425,45.292],[-67.137,45.138],[-67.791,45.703],[-67.79,47.066],[-69.237,47.448],[-71.505,45.008],[-74.867,45.0],[-76.82,43.629],[-78.72,43.625],[-79.172,43.466],[-78.939,42.864],[-82.439,41.675],[-83.142,41.976],[-82.138,43.571],[-82.551,45.348],[-88.378,48.303],[-91.64,48.14],[-94.329,48.671],[-94.818,49.389],[-95.159,49],[-122.84,49]]],[[[-83.994,62.453],[-81.877,62.905],[-83.069,62.159],[-83.994,62.453]]],[[[-79.776,72.803],[-80.876,73.333],[-80.353,73.76],[-78.064,73.652],[-76.251,72.826],[-79.776,72.803]]],[[[-80.315,62.086],[-79.266,62.159],[-79.658,61.633],[-80.315,62.086]]],[[[-93.613,74.98],[-94.157,74.592],[-96.821,74.928],[-94.851,75.647],[-93.613,74.98]]],[[[-93.84,77.52],[-94.296,77.491],[-96.17,77.555],[-96.436,77.835],[-94.423,77.82],[-93.721,77.634],[-93.84,77.52]]],[[[-96.754,78.766],[-95.559,78.418],[-97.31,77.851],[-98.632,78.872],[-96.754,78.766]]],[[[-88.15,74.392],[-92.422,74.838],[-92.89,75.883],[-93.894,76.319],[-97.121,76.751],[-96.745,77.161],[-91.605,76.779],[-90.742,76.45],[-90.97,76.074],[-89.187,75.61],[-81.129,75.714],[-80.058,75.337],[-79.834,74.923],[-80.458,74.657],[-88.15,74.392]]],[[[-111.264,78.153],[-109.854,77.996],[-110.187,77.697],[-113.534,77.732],[-111.264,78.153]]],[[[-110.964,78.804],[-109.663,78.602],[-112.542,78.408],[-110.964,78.804]]],[[[-55.6,51.317],[-56.796,49.812],[-56.143,50.15],[-55.471,49.936],[-55.822,49.587],[-53.477,49.249],[-53.786,48.517],[-53.086,48.688],[-52.648,47.536],[-53.069,46.655],[-54.179,46.807],[-54.24,47.752],[-55.401,46.885],[-55.997,46.92],[-55.291,47.39],[-56.251,47.633],[-59.266,47.603],[-58.797,48.252],[-59.232,48.523],[-57.359,50.718],[-55.871,51.632],[-55.6,51.317]]],[[[-83.883,65.11],[-80.103,63.726],[-80.991,63.411],[-83.109,64.102],[-85.523,63.052],[-85.867,63.637],[-87.222,63.541],[-86.353,64.036],[-85.884,65.739],[-83.883,65.11]]],[[[-78.771,72.352],[-77.825,72.75],[-74.229,71.767],[-74.099,71.331],[-72.242,71.557],[-68.786,70.525],[-66.969,69.186],[-68.805,68.72],[-61.852,66.862],[-63.918,64.999],[-66.721,66.388],[-68.015,66.263],[-68.141,65.69],[-65.32,64.383],[-64.669,63.393],[-65.014,62.674],[-68.783,63.746],[-66.166,61.931],[-71.023,62.911],[-74.834,64.679],[-77.71,64.23],[-78.556,64.573],[-77.897,65.309],[-73.96,65.455],[-73.945,66.311],[-72.651,67.285],[-73.312,68.069],[-76.869,68.895],[-76.229,69.148],[-78.957,70.167],[-81.305,69.743],[-88.682,70.411],[-89.513,70.762],[-88.468,71.218],[-89.888,71.223],[-90.205,72.235],[-88.408,73.538],[-85.826,73.804],[-86.562,73.157],[-85.774,72.534],[-84.85,73.34],[-82.316,73.751],[-80.6,72.717],[-80.749,72.062],[-78.771,72.352]]],[[[-94.504,74.135],[-90.51,73.857],[-94.269,72.025],[-95.41,72.062],[-96.018,73.437],[-94.504,74.135]]],[[[-122.855,76.117],[-119.104,77.512],[-116.199,77.645],[-116.336,76.877],[-117.106,76.53],[-122.855,76.117]]],[[[-132.71,54.04],[-131.75,54.12],[-132.049,52.985],[-131.179,52.18],[-133.055,53.411],[-133.18,54.17],[-132.71,54.04]]],[[[-105.492,79.302],[-100.825,78.8],[-99.671,77.908],[-105.176,78.38],[-104.21,78.677],[-105.492,79.302]]],[[[-123.51,48.51],[-125.655,48.825],[-128.059,49.995],[-128.358,50.771],[-125.755,50.295],[-123.51,48.51]]],[[[-121.538,74.449],[-117.556,74.186],[-115.511,73.475],[-119.22,72.52],[-120.46,71.384],[-123.092,70.902],[-125.929,71.869],[-123.94,73.68],[-124.918,74.293],[-121.538,74.449]]],[[[-107.819,75.846],[-105.881,75.969],[-105.705,75.48],[-106.313,75.005],[-112.223,74.417],[-113.871,74.72],[-111.794,75.162],[-117.71,75.222],[-115.405,76.479],[-109.067,75.473],[-110.497,76.43],[-109.581,76.794],[-108.549,76.678],[-107.819,75.846]]],[[[-106.523,73.076],[-105.402,72.673],[-104.465,70.993],[-100.981,70.024],[-101.089,69.584],[-102.731,69.504],[-102.093,69.12],[-102.43,68.753],[-105.96,69.18],[-113.313,68.536],[-117.34,69.96],[-112.416,70.366],[-117.905,70.541],[-118.432,70.909],[-116.113,71.309],[-119.402,71.559],[-117.866,72.706],[-115.189,73.315],[-114.167,73.121],[-114.666,72.653],[-112.441,72.955],[-111.05,72.45],[-109.92,72.961],[-108.188,71.651],[-107.686,72.065],[-108.396,73.09],[-106.523,73.076]]],[[[-100.438,72.706],[-101.54,73.36],[-100.356,73.844],[-97.38,73.76],[-97.12,73.47],[-98.054,72.991],[-96.54,72.56],[-96.72,71.66],[-98.36,71.273],[-102.5,72.51],[-100.438,72.706]]],[[[-106.6,73.6],[-104.5,73.42],[-105.38,72.76],[-106.6,73.6]]],[[[-98.5,76.72],[-97.736,76.257],[-98.16,75],[-102.502,75.564],[-102.566,76.337],[-98.5,76.72]]],[[[-96.016,80.602],[-94.298,80.977],[-94.735,81.206],[-92.41,81.257],[-87.81,80.32],[-85.814,79.337],[-89.035,78.287],[-92.877,78.343],[-93.951,78.751],[-93.145,79.38],[-94.974,79.372],[-96.71,80.158],[-96.016,80.602]]],[[[-91.587,81.894],[-85.5,82.652],[-83.18,82.32],[-82.42,82.86],[-79.307,83.131],[-61.85,82.629],[-67.658,81.501],[-65.48,81.507],[-71.18,79.8],[-76.908,79.323],[-75.529,79.198],[-76.22,79.019],[-75.393,78.526],[-79.76,77.21],[-77.889,76.778],[-80.561,76.178],[-89.491,76.472],[-89.616,76.952],[-87.767,77.178],[-88.26,77.9],[-84.976,77.539],[-87.962,78.372],[-85.095,79.345],[-86.932,80.251],[-81.848,80.464],[-87.599,80.516],[-91.587,81.894]]],[[[-75.216,67.444],[-76.987,67.099],[-77.236,67.588],[-75.895,68.287],[-75.115,68.01],[-75.216,67.444]]],[[[-96.257,69.49],[-95.648,69.108],[-96.27,68.757],[-99.797,69.4],[-98.218,70.144],[-96.257,69.49]]],[[[-64.519,49.873],[-64.173,49.957],[-62.858,49.706],[-61.836,49.289],[-61.806,49.105],[-62.293,49.087],[-63.589,49.401],[-64.519,49.873]]],[[[-64.015,47.036],[-63.664,46.55],[-62.012,46.443],[-62.874,45.968],[-64.143,46.393],[-64.015,47.036]]]]}},{"type":"Feature","properties":{"code":"USA","name":"United States of America"},"geometry":{"type":"MultiPolygon","coordinates":[[[[-122.84,49],[-95.159,49],[-94.818,49.389],[-94.329,48.671],[-91.64,48.14],[-88.378,48.303],[-82.551,45.348],[-82.138,43.571],[-83.12,42.08],[-82.69,41.675],[-78.939,42.864],[-79.172,43.466],[-78.72,43.625],[-76.82,43.629],[-74.867,45.0],[-71.505,45.008],[-69.237,47.448],[-67.79,47.066],[-67.791,45.703],[-66.965,44.81],[-70.116,43.684],[-70.825,42.335],[-69.965,41.637],[-73.71,40.931],[-71.945,40.93],[-73.952,40.751],[-74.906,38.94],[-75.528,39.498],[-75.057,38.404],[-75.94,37.217],[-75.722,37.937],[-76.35,39.15],[-76.329,38.083],[-76.99,38.24],[-76.302,37.918],[-75.727,35.551],[-81.336,31.44],[-81.314,30.036],[-80.057,26.88],[-80.381,25.206],[-81.172,25.201],[-81.71,25.87],[-83.71,29.937],[-85.109,29.636],[-86.4,30.4],[-89.594,30.16],[-89.408,29.16],[-93.226,29.784],[-94.69,29.48],[-97.14,27.83],[-97.14,25.87],[-97.53,25.84],[-99.02,26.37],[-100.958,29.381],[-102.48,29.76],[-103.11,28.97],[-103.94,29.27],[-106.508,31.755],[-111.024,31.335],[-114.721,32.721],[-117.128,32.535],[-118.52,34.028],[-120.623,34.609],[-124.398,40.313],[-124.533,42.766],[-123.899,45.523],[-124.687,48.184],[-123.12,48.04],[-122.587,47.096],[-122.84,49]]],[[[-155.402,20.08],[-154.807,19.509],[-155.688,18.916],[-156.073,19.703],[-155.861,20.267],[-155.402,20.08]]],[[[-155.996,20.764],[-156.079,20.644],[-156.414,20.572],[-156.587,20.783],[-156.702,20.864],[-156.711,20.927],[-156.613,21.012],[-156.257,20.917],[-155.996,20.764]]],[[[-156.758,21.177],[-156.789,21.069],[-157.325,21.098],[-157.25,21.22],[-156.758,21.177]]],[[[-158.025,21.717],[-157.942,21.653],[-157.653,21.322],[-157.707,21.264],[-157.779,21.277],[-158.127,21.312],[-158.254,21.539],[-158.293,21.579],[-158.025,21.717]]],[[[-159.366,22.215],[-159.345,21.982],[-159.464,21.883],[-159.801,22.065],[-159.749,22.138],[-159.596,22.236],[-159.366,22.215]]],[[[-166.468,60.384],[-165.579,59.91],[-167.455,60.213],[-166.468,60.384]]],[[[-153.229,57.969],[-152.141,57.591],[-154.005,56.735],[-154.516,56.993],[-154.671,57.461],[-153.229,57.969]]],[[[-140.986,69.712],[-140.998,60.306],[-139.039,60],[-137.452,58.905],[-135.476,59.788],[-131.708,56.552],[-130.008,55.916],[-130.536,54.803],[-131.967,55.498],[-134.078,58.123],[-136.628,58.212],[-139.868,59.538],[-147.114,60.885],[-148.224,60.673],[-148.018,59.978],[-151.716,59.156],[-151.41,60.726],[-150.347,61.034],[-150.621,61.284],[-154.019,59.35],[-153.288,58.865],[-154.232,58.146],[-158.433,55.994],[-164.942,54.572],[-158.684,57.017],[-157.723,57.57],[-157.042,58.919],[-159.059,58.424],[-160.355,59.071],[-161.969,58.672],[-161.874,59.634],[-162.518,59.99],[-163.818,59.798],[-165.346,60.507],[-166.121,61.5],[-165.734,62.075],[-164.563,63.146],[-160.773,63.766],[-161.518,64.403],[-160.778,64.789],[-164.961,64.447],[-168.111,65.67],[-164.475,66.577],[-163.653,66.577],[-163.789,66.077],[-161.678,66.116],[-166.764,68.359],[-166.205,68.883],[-164.431,68.916],[-161.909,70.333],[-156.581,71.358],[-154.344,70.696],[-140.986,69.712]]],[[[-171.732,63.783],[-168.689,63.298],[-169.529,62.977],[-171.553,63.318],[-171.732,63.783]]]]}},{"type":"Feature","properties":{"code":"KAZ","name":"Kazakhstan"},"geometry":{"type":"Polygon","coordinates":[[[87.36,49.215],[85.768,48.456],[85.164,47.001],[83.18,47.33],[82.459,45.54],[79.966,44.918],[80.866,43.18],[80.18,42.92],[80.26,42.35],[74.213,43.298],[73.49,42.501],[71.186,42.704],[68.632,40.669],[66.714,41.168],[66.511,41.988],[66.023,41.995],[66.098,42.998],[64.901,43.728],[62.013,43.504],[58.503,45.587],[55.929,44.996],[55.968,41.309],[54.079,42.324],[52.502,41.783],[52.501,42.792],[51.342,43.133],[50.306,44.61],[51.279,44.515],[51.317,45.246],[53.041,45.259],[53.043,46.853],[51.192,47.049],[49.101,46.399],[48.057,47.744],[46.466,48.394],[47.549,50.455],[48.578,49.875],[48.702,50.605],[50.767,51.693],[52.329,51.719],[55.717,50.622],[56.778,51.044],[61.337,50.799],[61.588,51.273],[59.968,51.96],[61.7,52.98],[60.978,53.665],[61.437,54.006],[69.068,55.385],[70.865,55.17],[71.18,54.133],[73.509,54.036],[73.426,53.49],[76.891,54.491],[76.525,54.177],[80.036,50.865],[80.568,51.388],[81.946,50.812],[83.383,51.069],[87.36,49.215]]]}},{"type":"Feature","properties":{"code":"UZB","name":"Uzbekistan"},"geometry":{"type":"Polygon","coordinates":[[[55.968,41.309],[55.929,44.996],[58.503,45.587],[62.013,43.504],[64.901,43.728],[66.098,42.998],[66.023,41.995],[66.511,41.988],[66.714,41.168],[67.986,41.136],[68.26,40.662],[70.962,42.266],[70.42,41.52],[73.055,40.866],[71.775,40.146],[70.601,40.219],[70.667,40.96],[69.329,40.728],[68.536,39.533],[67.701,39.58],[67.442,39.14],[68.176,38.902],[68.392,38.157],[67.83,37.145],[66.519,37.363],[66.546,37.975],[64.17,38.892],[62.374,40.054],[61.883,41.085],[60.466,41.22],[59.976,42.223],[58.629,42.752],[56.932,41.826],[57.096,41.322],[55.968,41.309]]]}},{"type":"Feature","properties":{"code":"PNG","name":"Papua New Guinea"},"geometry":{"type":"MultiPolygon","coordinates":[[[[141.0,-2.6],[144.584,-3.861],[145.982,-5.466],[147.648,-6.084],[147.891,-6.614],[146.971,-6.722],[147.192,-7.388],[150.691,-10.583],[147.913,-10.13],[146.048,-8.067],[144.744,-7.63],[143.286,-8.245],[143.414,-8.983],[142.628,-9.327],[141.034,-9.118],[141.0,-2.6]]],[[[152.64,-3.66],[153.14,-4.5],[152.827,-4.766],[152.406,-3.79],[150.662,-2.741],[152.64,-3.66]]],[[[151.301,-5.841],[149.71,-6.317],[148.319,-5.747],[149.846,-5.506],[150.14,-5.001],[150.237,-5.532],[150.807,-5.456],[151.648,-4.757],[151.538,-4.168],[152.137,-4.149],[152.319,-4.868],[151.301,-5.841]]],[[[154.76,-5.34],[155.88,-6.82],[155.167,-6.536],[154.76,-5.34]]]]}},{"type":"Feature","properties":{"code":"IDN","name":"Indonesia"},"geometry":{"type":"MultiPolygon","coordinates":[[[[141.0,-2.6],[141.034,-9.118],[140.143,-8.297],[137.614,-8.412],[138.669,-7.32],[137.928,-5.393],[133.663,-3.539],[132.984,-4.113],[131.99,-2.821],[133.696,-2.215],[132.232,-2.213],[130.52,-0.938],[132.38,-0.37],[133.986,-0.78],[134.423,-2.769],[135.458,-3.368],[137.441,-1.704],[141.0,-2.6]]],[[[124.969,-8.893],[124.436,-10.14],[123.46,-10.24],[123.98,-9.29],[124.969,-8.893]]],[[[134.21,-6.895],[134.5,-5.445],[134.725,-6.214],[134.21,-6.895]]],[[[117.882,4.138],[117.313,3.234],[117.876,1.828],[118.997,0.902],[117.812,0.784],[117.522,-0.804],[116.56,-1.488],[116.148,-4.013],[116.001,-3.657],[114.865,-4.107],[113.257,-3.119],[112.068,-3.478],[111.703,-2.994],[110.224,-2.934],[108.953,0.415],[109.663,2.006],[110.514,0.773],[112.86,1.498],[113.806,1.218],[114.621,1.431],[115.866,4.307],[117.882,4.138]]],[[[129.371,-2.802],[130.471,-3.094],[130.835,-3.858],[127.899,-3.393],[128.136,-2.844],[129.371,-2.802]]],[[[126.875,-3.791],[125.989,-3.177],[127.001,-3.129],[126.875,-3.791]]],[[[127.932,2.175],[128.688,1.132],[128.1,-0.9],[127.399,1.012],[127.932,2.175]]],[[[122.928,0.875],[125.066,1.643],[124.437,0.428],[120.183,0.237],[120.041,-0.52],[120.936,-1.409],[123.341,-0.616],[121.508,-1.904],[123.162,-5.341],[122.236,-5.283],[122.72,-4.464],[121.489,-4.575],[120.972,-2.628],[120.305,-2.932],[120.431,-5.528],[119.797,-5.673],[119.367,-5.38],[119.499,-3.494],[118.768,-2.802],[119.826,0.154],[120.886,1.309],[122.928,0.875]]],[[[120.295,-10.259],[118.968,-9.558],[119.9,-9.361],[120.776,-9.97],[120.295,-10.259]]],[[[121.342,-8.537],[122.904,-8.094],[122.757,-8.65],[121.254,-8.934],[119.921,-8.445],[121.342,-8.537]]],[[[118.261,-8.362],[119.127,-8.706],[116.74,-9.033],[117.9,-8.096],[118.261,-8.362]]],[[[108.487,-6.422],[112.615,-6.946],[112.979,-7.594],[115.706,-8.371],[114.565,-8.752],[106.454,-7.355],[105.365,-6.851],[106.052,-5.896],[108.487,-6.422]]],[[[104.37,-1.085],[104.888,-2.34],[106.109,-3.062],[105.818,-5.852],[104.71,-5.873],[101.399,-2.8],[98.601,1.824],[95.293,5.48],[97.485,5.246],[100.641,2.099],[102.498,1.399],[103.838,0.105],[103.438,-0.712],[104.37,-1.085]]]]}},{"type":"Feature","properties":{"code":"CHL","name":"Chile"},"geometry":{"type":"MultiPolygon","coordinates":[[[[-68.634,-52.636],[-68.633,-54.87],[-66.96,-54.897],[-68.149,-55.612],[-71.006,-55.054],[-74.663,-52.837],[-71.108,-54.074],[-70.267,-52.931],[-68.634,-52.636]]],[[[-69.59,-17.58],[-68.442,-19.405],[-68.757,-20.373],[-67.828,-22.873],[-66.985,-22.986],[-67.328,-24.025],[-68.418,-24.519],[-68.296,-26.899],[-69.656,-28.459],[-70.535,-31.365],[-69.817,-34.194],[-70.365,-36.005],[-71.122,-36.658],[-70.815,-38.553],[-71.414,-38.916],[-72.149,-42.255],[-71.223,-44.784],[-71.659,-44.974],[-72.331,-48.244],[-73.415,-49.318],[-73.328,-50.379],[-72.31,-50.677],[-71.915,-52.009],[-68.572,-52.299],[-70.845,-52.899],[-71.43,-53.856],[-74.947,-52.263],[-75.608,-48.674],[-74.127,-46.939],[-75.644,-46.648],[-74.692,-45.764],[-74.352,-44.103],[-73.24,-44.455],[-72.718,-42.383],[-73.389,-42.118],[-73.701,-43.366],[-74.332,-43.225],[-73.218,-39.259],[-73.588,-37.156],[-73.167,-37.124],[-71.438,-32.419],[-71.49,-28.861],[-70.905,-27.64],[-70.091,-21.393],[-70.373,-18.348],[-69.59,-17.58]]]]}},{"type":"Feature","properties":{"code":"COD","name":"Dem. Rep. Congo"},"geometry":{"type":"Polygon","coordinates":[[[29.34,-4.5],[29.62,-6.52],[30.74,-8.34],[28.735,-8.527],[28.372,-11.794],[29.616,-12.179],[29.7,-13.257],[28.934,-13.249],[27.164,-11.609],[26.553,-11.924],[24.257,-10.952],[22.155,-11.085],[21.728,-7.291],[20.092,-6.943],[19.017,-7.988],[17.473,-8.069],[16.327,-5.877],[12.182,-5.79],[13.6,-4.5],[14.583,-4.97],[16.006,-3.535],[16.407,-1.741],[17.639,-0.425],[18.543,4.202],[19.468,5.032],[22.405,4.029],[22.841,4.71],[25.65,5.256],[27.374,5.234],[28.429,4.287],[29.716,4.601],[30.834,3.509],[30.773,2.34],[31.174,2.204],[29.876,0.597],[29.025,-2.839],[29.34,-4.5]]]}},{"type":"Feature","properties":{"code":"SOM","name":"Somalia"},"geometry":{"type":"Polygon","coordinates":[[[41.585,-1.683],[40.993,-0.858],[40.981,2.785],[42.129,4.234],[44.964,5.002],[48.938,9.452],[48.948,11.411],[51.111,12.025],[50.552,9.199],[48.595,5.339],[41.585,-1.683]]]}},{"type":"Feature","properties":{"code":"KEN","name":"Kenya"},"geometry":{"type":"Polygon","coordinates":[[[39.202,-4.677],[37.767,-3.677],[37.699,-3.097],[33.904,-0.95],[33.894,0.11],[35.036,1.906],[34.005,4.25],[35.298,5.506],[36.159,4.448],[38.121,3.599],[39.559,3.422],[40.768,4.257],[41.855,3.919],[40.981,2.785],[40.993,-0.858],[41.585,-1.683],[40.263,-2.573],[39.202,-4.677]]]}},{"type":"Feature","properties":{"code":"SDN","name":"Sudan"},"geometry":{"type":"Polygon","coordinates":[[[24.567,8.229],[23.459,8.954],[23.554,10.089],[21.937,12.588],[23.025,15.681],[23.887,15.611],[23.85,20],[25,20.003],[25,22],[36.866,22],[37.482,18.614],[38.41,17.998],[36.853,16.957],[36.27,13.563],[34.257,10.63],[33.975,8.685],[33.207,12.179],[32.743,12.248],[32.074,11.973],[32.4,11.081],[31.353,9.81],[29.997,10.291],[28.967,9.398],[26.752,9.467],[25.791,10.411],[25.07,10.274],[24.537,8.918],[23.887,8.62],[24.567,8.229]]]}},{"type":"Feature","properties":{"code":"TCD","name":"Chad"},"geometry":{"type":"Polygon","coordinates":[[[23.838,19.58],[23.887,15.611],[23.025,15.681],[21.937,12.588],[22.864,11.142],[21.001,9.476],[18.812,8.983],[17.965,7.891],[15.279,7.422],[14.98,8.796],[13.954,9.549],[14.171,10.021],[15.468,9.982],[14.596,13.33],[13.954,13.353],[13.54,14.367],[13.972,15.684],[15.248,16.627],[15.903,20.388],[15.097,21.309],[14.851,22.863],[15.861,23.41],[23.838,19.58]]]}},{"type":"Feature","properties":{"code":"HTI","name":"Haiti"},"geometry":{"type":"Polygon","coordinates":[[[-71.712,19.714],[-71.708,18.045],[-74.458,18.343],[-72.335,18.668],[-73.19,19.916],[-71.712,19.714]]]}},{"type":"Feature","properties":{"code":"DOM","name":"Dominican Rep."},"geometry":{"type":"Polygon","coordinates":[[[-71.708,18.045],[-71.587,19.885],[-69.951,19.648],[-68.318,18.612],[-68.689,18.205],[-70.669,18.427],[-71.4,17.599],[-71.708,18.045]]]}},{"type":"Feature","properties":{"code":"RUS","name":"Russia"},"geometry":{"type":"MultiPolygon","coordinates":[[[[178.725,71.099],[180,71.516],[180,70.832],[178.725,71.099]]],[[[49.101,46.399],[46.682,44.609],[48.584,41.809],[47.816,41.151],[45.47,42.503],[39.955,43.435],[36.675,45.245],[38.233,46.241],[37.674,46.637],[39.148,47.045],[38.224,47.102],[38.255,47.546],[39.738,47.899],[40.069,49.601],[35.356,50.577],[35.022,51.208],[34.225,51.256],[34.392,51.769],[33.753,52.335],[31.786,52.102],[31.305,53.074],[32.694,53.351],[30.758,54.812],[30.874,55.551],[28.177,56.169],[27.288,57.475],[27.717,57.792],[27.42,58.725],[29.118,60.028],[28.07,60.504],[31.516,62.868],[30.036,63.553],[30.445,64.204],[29.544,64.949],[30.218,65.806],[29.055,66.944],[29.977,67.698],[28.446,68.365],[28.592,69.065],[32.133,69.906],[41.06,67.457],[41.126,66.792],[38.383,66.0],[33.184,66.633],[34.815,65.9],[34.944,64.414],[37.013,63.85],[36.54,64.764],[37.176,65.143],[39.593,64.521],[40.436,64.764],[39.763,65.497],[42.093,66.476],[43.95,66.069],[44.532,66.756],[43.698,67.352],[44.188,67.951],[43.453,68.571],[46.25,68.25],[46.821,67.69],[45.555,67.567],[45.562,67.01],[46.349,66.668],[53.717,68.857],[54.472,68.808],[53.486,68.201],[58.802,68.881],[59.941,68.278],[61.078,68.941],[60.03,69.52],[60.55,69.85],[68.512,68.092],[69.181,68.616],[66.93,69.455],[67.26,69.929],[66.695,71.029],[69.94,73.04],[72.588,72.776],[72.796,72.22],[71.848,71.409],[72.792,70.391],[72.565,69.021],[73.668,68.408],[71.28,66.32],[72.423,66.173],[75.052,67.76],[74.469,68.329],[74.936,68.989],[73.842,69.071],[73.602,69.628],[74.4,70.632],[73.101,71.447],[74.891,72.121],[74.659,72.832],[75.684,72.301],[75.289,71.336],[76.359,71.153],[75.903,71.874],[77.577,72.267],[81.5,71.75],[80.611,72.583],[80.511,73.648],[86.822,73.937],[86.01,74.46],[87.167,75.116],[100.76,76.43],[101.991,77.288],[104.352,77.698],[106.067,77.374],[104.705,77.127],[106.97,76.974],[107.24,76.48],[111.077,76.71],[114.134,75.848],[113.885,75.328],[109.4,74.18],[113.02,73.977],[113.53,73.335],[115.568,73.753],[123.201,72.971],[123.258,73.735],[126.976,73.565],[128.591,73.039],[129.052,72.399],[128.46,71.98],[131.289,70.787],[132.254,71.836],[133.858,71.386],[139.87,71.488],[139.148,72.416],[140.468,72.849],[149.5,72.2],[152.969,70.842],[158.998,70.867],[159.83,70.453],[159.709,69.722],[160.941,69.437],[167.836,69.583],[169.578,68.694],[170.817,69.014],[170.008,69.653],[170.453,70.097],[175.724,69.877],[180,68.964],[180,64.98],[177.411,64.608],[179.37,62.983],[179.228,62.304],[177.364,62.522],[173.68,61.653],[170.331,59.882],[168.9,60.574],[166.295,59.789],[165.84,60.16],[163.539,59.869],[162.017,58.243],[163.192,57.615],[163.058,56.159],[162.13,56.122],[161.701,55.286],[162.117,54.855],[160.369,54.344],[160.022,53.203],[158.531,52.959],[158.231,51.943],[156.79,51.011],[155.434,55.381],[155.914,56.768],[156.81,57.832],[158.364,58.056],[163.67,61.141],[164.474,62.551],[163.258,62.466],[162.658,61.642],[160.121,60.544],[159.302,61.774],[156.721,61.434],[154.218,59.758],[155.044,59.145],[151.266,58.781],[151.338,59.504],[149.784,59.656],[148.545,59.164],[142.198,59.04],[135.126,54.73],[136.702,54.604],[138.165,53.755],[139.902,54.19],[141.345,53.09],[140.062,48.447],[134.869,43.398],[133.537,42.811],[132.278,43.285],[130.78,42.22],[131.025,44.968],[133.097,45.144],[135.026,48.478],[130.987,47.79],[130.582,48.73],[129.398,49.441],[127.657,49.76],[125.946,52.793],[123.571,53.459],[120.177,52.754],[120.738,51.964],[119.288,50.143],[117.879,49.511],[114.362,50.248],[110.662,49.13],[108.475,49.283],[106.889,50.274],[103.677,50.09],[102.256,50.511],[102.065,51.26],[98.861,52.047],[97.826,51.011],[98.232,50.422],[97.26,49.726],[92.235,50.802],[87.36,49.215],[83.383,51.069],[81.946,50.812],[80.568,51.388],[80.036,50.865],[76.525,54.177],[76.891,54.491],[73.426,53.49],[73.509,54.036],[71.18,54.133],[70.865,55.17],[69.068,55.385],[61.437,54.006],[60.978,53.665],[61.7,52.98],[59.968,51.96],[61.588,51.273],[61.337,50.799],[56.778,51.044],[55.717,50.622],[52.329,51.719],[50.767,51.693],[48.702,50.605],[48.578,49.875],[47.549,50.455],[46.466,48.394],[48.057,47.744],[49.101,46.399]]],[[[93.778,81.025],[95.941,81.25],[100.187,79.78],[99.94,78.881],[94.973,79.045],[91.181,80.341],[93.778,81.025]]],[[[102.838,79.281],[105.372,78.713],[105.075,78.307],[99.438,77.921],[101.265,79.234],[102.838,79.281]]],[[[138.831,76.137],[145.086,75.563],[144.3,74.82],[138.955,74.611],[136.974,75.262],[137.512,75.949],[138.831,76.137]]],[[[148.222,75.346],[150.732,75.084],[147.977,74.778],[146.119,75.173],[148.222,75.346]]],[[[139.863,73.37],[142.062,73.858],[143.604,73.212],[139.863,73.37]]],[[[44.847,80.59],[51.523,80.7],[47.586,80.01],[46.503,80.247],[47.072,80.559],[44.847,80.59]]],[[[22.731,54.328],[19.661,54.426],[21.268,55.19],[22.758,54.857],[22.731,54.328]]],[[[53.508,73.75],[55.902,74.627],[55.632,75.081],[61.17,76.252],[68.157,76.94],[68.852,76.545],[58.477,74.309],[55.419,72.371],[55.623,71.541],[57.536,70.72],[53.677,70.763],[51.602,71.475],[51.456,72.015],[52.478,72.229],[52.444,72.775],[54.428,73.628],[53.508,73.75]]],[[[142.915,53.705],[143.235,51.757],[144.654,48.976],[143.174,49.307],[142.559,47.862],[143.533,46.837],[143.505,46.138],[142.748,46.741],[142.092,45.967],[142.18,50.952],[141.594,51.935],[141.683,53.302],[142.607,53.762],[142.21,54.225],[142.655,54.366],[142.915,53.705]]],[[[-174.928,67.206],[-175.014,66.584],[-174.34,66.336],[-174.572,67.062],[-171.857,66.913],[-169.9,65.977],[-172.53,65.438],[-172.955,64.253],[-176.207,65.357],[-178.36,65.391],[-178.903,65.74],[-178.686,66.112],[-179.884,65.875],[-179.433,65.404],[-180,64.98],[-180,68.964],[-174.928,67.206]]],[[[-178.694,70.893],[-180,70.832],[-180,71.516],[-177.578,71.269],[-178.694,70.893]]],[[[33.436,45.972],[36.53,45.47],[33.883,44.361],[33.326,44.565],[33.547,45.035],[32.454,45.327],[33.436,45.972]]]]}},{"type":"Feature","properties":{"code":"BHS","name":"Bahamas"},"geometry":{"type":"MultiPolygon","coordinates":[[[[-78.98,26.79],[-77.82,26.58],[-78.91,26.42],[-78.98,26.79]]],[[[-77.79,27.04],[-77,26.59],[-77.173,25.879],[-77.79,27.04]]],[[[-78.191,25.21],[-77.535,23.76],[-78.408,24.576],[-78.191,25.21]]]]}},{"type":"Feature","properties":{"code":"NOR","name":"Norway"},"geometry":{"type":"MultiPolygon","coordinates":[[[[15.143,79.674],[16.991,80.051],[21.544,78.956],[19.027,78.563],[17.118,76.809],[15.913,76.77],[13.763,77.38],[14.67,77.736],[11.222,78.869],[10.445,79.652],[15.143,79.674]]],[[[31.101,69.558],[28.592,69.065],[29.016,69.766],[27.732,70.164],[26.18,69.825],[24.736,68.65],[21.245,69.37],[20.025,69.065],[19.879,68.407],[17.994,68.567],[17.729,68.011],[16.769,68.014],[13.556,64.787],[13.92,64.445],[13.572,64.049],[12.58,64.066],[11.931,63.128],[11.992,61.8],[12.631,61.294],[12.3,60.118],[11.027,58.856],[10.357,59.47],[8.382,58.313],[7.049,58.079],[5.666,58.588],[4.992,61.971],[10.528,64.486],[14.761,67.811],[19.184,69.817],[23.024,70.202],[24.547,71.03],[28.166,71.185],[31.293,70.454],[30.005,70.186],[31.101,69.558]]],[[[27.408,80.056],[23.024,79.4],[17.368,80.319],[22.919,80.657],[27.408,80.056]]],[[[24.724,77.854],[20.726,77.677],[21.416,77.935],[20.812,78.255],[22.884,78.455],[24.724,77.854]]]]}},{"type":"Feature","properties":{"code":"GRL","name":"Greenland"},"geometry":{"type":"Polygon","coordinates":[[[-46.764,82.628],[-38.622,83.549],[-27.1,83.52],[-20.845,82.727],[-31.396,82.022],[-22.903,82.093],[-22.072,81.734],[-23.17,81.153],[-15.768,81.912],[-12.209,81.292],[-20.046,80.177],[-17.73,80.129],[-19.705,78.751],[-19.674,77.639],[-18.473,76.986],[-21.679,76.628],[-19.834,76.098],[-19.599,75.248],[-20.668,75.156],[-19.373,74.296],[-21.594,74.224],[-20.435,73.817],[-20.762,73.464],[-23.566,73.307],[-22.3,72.184],[-24.793,72.33],[-22.133,71.469],[-21.754,70.664],[-23.536,70.471],[-25.543,71.431],[-25.201,70.752],[-26.363,70.226],[-22.349,70.129],[-27.747,68.47],[-31.777,68.121],[-34.202,66.68],[-39.812,65.458],[-41.189,63.482],[-42.819,62.682],[-42.417,61.901],[-43.378,60.098],[-44.788,60.037],[-46.264,60.853],[-48.263,60.858],[-51.633,63.627],[-52.277,65.177],[-53.662,66.1],[-53.302,66.837],[-53.969,67.189],[-52.98,68.358],[-51.475,68.73],[-50.871,69.929],[-53.456,69.284],[-54.683,69.61],[-54.359,70.821],[-51.39,70.57],[-55.835,71.654],[-54.718,72.586],[-58.585,75.517],[-61.269,76.102],[-68.504,76.061],[-71.403,77.009],[-66.764,77.376],[-73.297,78.044],[-73.159,78.433],[-65.711,79.394],[-65.324,79.758],[-68.023,80.117],[-62.234,81.321],[-62.651,81.77],[-57.207,82.191],[-53.043,81.888],[-50.391,82.439],[-44.523,81.661],[-46.901,82.2],[-46.764,82.628]]]}},{"type":"Feature","properties":{"code":"ATF","name":"Fr. S. Antarctic Lands"},"geometry":{"type":"Polygon","coordinates":[[[68.935,-48.625],[70.56,-49.255],[70.28,-49.71],[68.745,-49.775],[68.935,-48.625]]]}},{"type":"Feature","properties":{"code":"TLS","name":"Timor-Leste"},"geometry":{"type":"Polygon","coordinates":[[[124.969,-8.893],[127.336,-8.397],[125.089,-9.393],[124.969,-8.893]]]}},{"type":"Feature","properties":{"code":"ZAF","name":"South Africa"},"geometry":{"type":"Polygon","coordinates":[[[16.345,-28.577],[16.824,-28.082],[18.465,-29.045],[19.895,-28.461],[19.896,-24.768],[20.89,-26.829],[21.606,-26.727],[23.312,-25.269],[25.665,-25.487],[27.119,-23.574],[29.432,-22.091],[31.191,-22.252],[31.931,-24.369],[31.838,-25.843],[31.044,-25.731],[30.686,-26.744],[31.283,-27.286],[32.83,-26.742],[32.203,-28.752],[28.22,-32.772],[25.781,-33.945],[22.574,-33.864],[20.071,-34.795],[18.377,-34.137],[17.925,-32.611],[18.222,-31.662],[16.345,-28.577]],[[28.978,-28.956],[28.074,-28.851],[26.999,-29.876],[28.107,-30.546],[29.325,-29.257],[28.978,-28.956]]]}},{"type":"Feature","properties":{"code":"LSO","name":"Lesotho"},"geometry":{"type":"Polygon","coordinates":[[[28.978,-28.956],[29.325,-29.257],[28.107,-30.546],[26.999,-29.876],[28.074,-28.851],[28.978,-28.956]]]}},{"type":"Feature","properties":{"code":"MEX","name":"Mexico"},"geometry":{"type":"Polygon","coordinates":[[[-117.128,32.535],[-114.721,32.721],[-111.024,31.335],[-106.508,31.755],[-103.94,29.27],[-103.11,28.97],[-102.48,29.76],[-101.662,29.779],[-99.02,26.37],[-97.14,25.87],[-97.872,22.444],[-95.901,18.828],[-94.426,18.144],[-91.408,18.876],[-90.772,19.284],[-90.279,21.0],[-87.052,21.544],[-86.846,20.85],[-87.837,18.26],[-91.002,17.818],[-91.002,17.255],[-91.454,17.252],[-90.464,16.07],[-91.748,16.067],[-92.228,14.539],[-93.875,15.94],[-96.557,15.654],[-103.501,18.292],[-105.493,19.947],[-105.266,21.422],[-106.029,22.774],[-112.228,28.954],[-113.149,31.171],[-114.776,31.8],[-114.674,30.163],[-111.616,26.663],[-110.655,24.299],[-109.409,23.365],[-110.031,22.823],[-112.182,24.738],[-112.301,26.012],[-115.055,27.723],[-114.162,28.566],[-115.519,29.556],[-117.128,32.535]]]}},{"type":"Feature","properties":{"code":"URY","name":"Uruguay"},"geometry":{"type":"Polygon","coordinates":[[[-57.625,-30.216],[-56.976,-30.11],[-53.788,-32.047],[-53.21,-32.728],[-53.806,-34.397],[-56.215,-34.86],[-58.427,-33.909],[-57.625,-30.216]]]}},{"type":"Feature","properties":{"code":"BRA","name":"Brazil"},"geometry":{"type":"Polygon","coordinates":[[[-53.374,-33.768],[-53.651,-33.202],[-53.21,-32.728],[-53.788,-32.047],[-56.976,-30.11],[-57.625,-30.216],[-53.649,-26.923],[-53.628,-26.125],[-54.13,-25.548],[-54.625,-25.739],[-54.293,-24.021],[-55.401,-23.957],[-55.798,-22.357],[-57.937,-22.09],[-58.166,-20.177],[-57.498,-18.174],[-58.281,-17.272],[-58.241,-16.3],[-60.158,-16.258],[-60.503,-13.776],[-64.316,-12.462],[-65.402,-11.566],[-65.338,-9.762],[-66.647,-9.931],[-68.271,-11.015],[-70.549,-11.009],[-70.482,-9.49],[-72.185,-10.054],[-73.227,-9.462],[-73.015,-9.033],[-73.987,-7.524],[-73.12,-6.63],[-72.892,-5.275],[-69.894,-4.298],[-69.42,-1.123],[-70.016,0.541],[-69.219,0.986],[-69.805,1.089],[-69.817,1.715],[-67.538,2.037],[-67.065,1.13],[-65.548,0.789],[-63.369,2.201],[-64.27,2.497],[-64.816,4.056],[-63.093,3.771],[-60.967,4.536],[-60.734,5.2],[-59.981,5.014],[-59.538,3.959],[-59.975,2.755],[-59.031,1.318],[-55.996,1.818],[-55.973,2.51],[-52.94,2.125],[-51.317,4.203],[-50.509,1.902],[-49.974,1.736],[-50.699,0.223],[-50.388,-0.078],[-48.621,-0.235],[-48.584,-1.238],[-47.825,-0.582],[-44.906,-1.552],[-44.582,-2.691],[-43.419,-2.383],[-39.979,-2.873],[-37.223,-4.821],[-35.598,-5.15],[-34.73,-7.343],[-35.128,-8.996],[-38.674,-13.058],[-39.267,-17.868],[-40.945,-21.937],[-41.988,-22.97],[-44.648,-23.352],[-47.649,-24.885],[-48.495,-25.877],[-48.888,-28.674],[-53.374,-33.768]]]}},{"type":"Feature","properties":{"code":"BOL","name":"Bolivia"},"geometry":{"type":"Polygon","coordinates":[[[-69.53,-10.952],[-68.271,-11.015],[-66.647,-9.931],[-65.338,-9.762],[-65.402,-11.566],[-64.316,-12.462],[-60.503,-13.776],[-60.158,-16.258],[-58.241,-16.3],[-58.281,-17.272],[-57.498,-18.174],[-57.854,-19.97],[-59.115,-19.357],[-61.786,-19.634],[-62.685,-22.249],[-63.987,-21.994],[-64.377,-22.798],[-64.965,-22.076],[-66.273,-21.832],[-67.828,-22.873],[-68.757,-20.373],[-68.442,-19.405],[-69.59,-17.58],[-68.96,-16.501],[-69.34,-14.953],[-68.665,-12.561],[-69.53,-10.952]]]}},{"type":"Feature","properties":{"code":"PER","name":"Peru"},"geometry":{"type":"Polygon","coordinates":[[[-69.894,-4.298],[-72.892,-5.275],[-73.12,-6.63],[-73.987,-7.524],[-73.015,-9.033],[-73.227,-9.462],[-72.185,-10.054],[-70.482,-9.49],[-70.549,-11.009],[-69.53,-10.952],[-68.665,-12.561],[-69.34,-14.953],[-68.96,-16.501],[-70.373,-18.348],[-76.009,-14.649],[-79.761,-7.194],[-81.25,-6.137],[-80.926,-5.691],[-81.411,-4.737],[-80.303,-3.405],[-80.442,-4.426],[-79.205,-4.959],[-78.64,-4.548],[-77.838,-3.003],[-75.545,-1.562],[-75.107,-0.057],[-73.07,-2.309],[-70.813,-2.257],[-70.048,-2.725],[-70.693,-3.743],[-69.894,-4.298]]]}},{"type":"Feature","properties":{"code":"COL","name":"Colombia"},"geometry":{"type":"Polygon","coordinates":[[[-66.876,1.253],[-67.538,2.037],[-69.817,1.715],[-69.805,1.089],[-69.219,0.986],[-70.016,0.541],[-69.42,-1.123],[-69.894,-4.298],[-70.693,-3.743],[-70.048,-2.725],[-70.813,-2.257],[-73.07,-2.309],[-75.107,-0.057],[-77.425,0.396],[-78.991,1.691],[-77.128,3.85],[-77.882,7.224],[-77.243,7.935],[-77.475,8.524],[-75.675,9.443],[-74.907,11.083],[-73.415,11.227],[-71.4,12.376],[-71.332,11.776],[-72.905,10.45],[-73.305,9.152],[-72.789,9.085],[-71.96,6.992],[-70.093,6.96],[-69.389,6.1],[-67.341,6.095],[-67.823,4.504],[-67.303,3.318],[-67.81,2.821],[-66.876,1.253]]]}},{"type":"Feature","properties":{"code":"PAN","name":"Panama"},"geometry":{"type":"Polygon","coordinates":[[[-77.353,8.671],[-77.243,7.935],[-77.882,7.224],[-78.182,8.319],[-79.12,8.996],[-80.383,8.298],[-80.004,7.548],[-80.886,7.221],[-81.721,8.109],[-82.851,8.074],[-82.933,9.477],[-81.439,8.786],[-79.021,9.553],[-77.353,8.671]]]}},{"type":"Feature","properties":{"code":"CRI","name":"Costa Rica"},"geometry":{"type":"Polygon","coordinates":[[[-82.546,9.566],[-82.966,8.225],[-84.976,10.087],[-85.111,9.557],[-85.661,9.933],[-85.942,10.895],[-83.656,10.939],[-82.546,9.566]]]}},{"type":"Feature","properties":{"code":"NIC","name":"Nicaragua"},"geometry":{"type":"Polygon","coordinates":[[[-83.656,10.939],[-85.713,11.088],[-87.668,12.91],[-84.925,14.79],[-83.147,14.996],[-83.656,10.939]]]}},{"type":"Feature","properties":{"code":"HND","name":"Honduras"},"geometry":{"type":"Polygon","coordinates":[[[-83.147,14.996],[-84.925,14.79],[-87.317,12.985],[-87.86,13.893],[-89.353,14.424],[-87.902,15.864],[-84.984,15.996],[-83.147,14.996]]]}},{"type":"Feature","properties":{"code":"SLV","name":"El Salvador"},"geometry":{"type":"Polygon","coordinates":[[[-89.353,14.424],[-87.724,13.785],[-87.904,13.149],[-90.096,13.735],[-89.353,14.424]]]}},{"type":"Feature","properties":{"code":"GTM","name":"Guatemala"},"geometry":{"type":"Polygon","coordinates":[[[-92.228,14.539],[-91.748,16.067],[-90.464,16.07],[-91.454,17.252],[-91.002,17.255],[-91.002,17.818],[-89.143,17.808],[-89.229,15.887],[-88.225,15.728],[-89.353,14.424],[-90.096,13.735],[-92.228,14.539]]]}},{"type":"Feature","properties":{"code":"BLZ","name":"Belize"},"geometry":{"type":"Polygon","coordinates":[[[-89.143,17.808],[-88.107,18.349],[-88.931,15.887],[-89.143,17.808]]]}},{"type":"Feature","properties":{"code":"VEN","name":"Venezuela"},"geometry":{"type":"Polygon","coordinates":[[[-60.734,5.2],[-60.967,4.536],[-63.093,3.771],[-64.816,4.056],[-64.27,2.497],[-63.369,2.201],[-66.326,0.724],[-67.81,2.821],[-67.303,3.318],[-67.823,4.504],[-67.341,6.095],[-69.389,6.1],[-70.093,6.96],[-71.96,6.992],[-72.789,9.085],[-73.305,9.152],[-72.905,10.45],[-71.332,11.776],[-71.947,11.423],[-71.633,10.446],[-72.074,9.866],[-71.265,9.137],[-71.401,10.969],[-70.155,11.375],[-69.943,12.162],[-68.194,10.555],[-66.228,10.649],[-64.89,10.077],[-64.318,10.641],[-61.881,10.716],[-62.73,10.42],[-62.389,9.948],[-59.758,8.367],[-61.41,5.959],[-60.734,5.2]]]}},{"type":"Feature","properties":{"code":"GUY","name":"Guyana"},"geometry":{"type":"Polygon","coordinates":[[[-56.539,1.9],[-58.54,1.268],[-59.646,1.787],[-59.981,5.014],[-61.41,5.959],[-59.758,8.367],[-57.147,5.973],[-58.045,4.061],[-56.539,1.9]]]}},{"type":"Feature","properties":{"code":"SUR","name":"Suriname"},"geometry":{"type":"Polygon","coordinates":[[[-54.525,2.312],[-55.973,2.51],[-55.996,1.818],[-56.539,1.9],[-57.602,3.335],[-58.045,4.061],[-57.147,5.973],[-53.958,5.757],[-54.479,4.897],[-54.007,3.62],[-54.525,2.312]]]}},{"type":"Feature","properties":{"code":"FRA","name":"France"},"geometry":{"type":"MultiPolygon","coordinates":[[[[-51.658,4.156],[-52.94,2.125],[-54.525,2.312],[-54.007,3.62],[-54.479,4.897],[-53.958,5.757],[-51.658,4.156]]],[[[6.186,49.464],[8.099,49.018],[7.467,47.621],[6.037,46.726],[6.844,45.991],[7.435,43.694],[6.529,43.129],[3.1,43.075],[2.986,42.473],[1.827,42.343],[-1.901,43.423],[-1.194,46.015],[-2.963,47.57],[-4.492,47.955],[-4.592,48.684],[-1.617,48.644],[-1.933,49.776],[-0.989,49.347],[1.339,50.127],[1.639,50.947],[2.514,51.149],[4.286,49.907],[6.186,49.464]]],[[[8.746,42.628],[9.39,43.01],[9.23,41.38],[8.746,42.628]]]]}},{"type":"Feature","properties":{"code":"ECU","name":"Ecuador"},"geometry":{"type":"Polygon","coordinates":[[[-75.373,-0.152],[-75.545,-1.562],[-77.838,-3.003],[-78.64,-4.548],[-79.205,-4.959],[-80.442,-4.426],[-79.77,-2.658],[-80.968,-2.247],[-80.934,-1.057],[-80.091,0.768],[-78.855,1.381],[-75.373,-0.152]]]}},{"type":"Feature","properties":{"code":"PRI","name":"Puerto Rico"},"geometry":{"type":"Polygon","coordinates":[[[-66.282,18.515],[-65.591,18.228],[-65.847,17.976],[-67.184,17.947],[-67.101,18.521],[-66.282,18.515]]]}},{"type":"Feature","properties":{"code":"JAM","name":"Jamaica"},"geometry":{"type":"Polygon","coordinates":[[[-77.57,18.491],[-76.2,17.887],[-77.766,17.862],[-78.338,18.226],[-77.57,18.491]]]}},{"type":"Feature","properties":{"code":"CUB","name":"Cuba"},"geometry":{"type":"Polygon","coordinates":[[[-82.268,23.189],[-78.347,22.512],[-74.178,20.285],[-77.755,19.855],[-77.085,20.413],[-78.137,20.74],[-78.72,21.598],[-81.821,22.192],[-82.17,22.387],[-81.795,22.637],[-84.975,21.896],[-82.268,23.189]]]}},{"type":"Feature","properties":{"code":"ZWE","name":"Zimbabwe"},"geometry":{"type":"Polygon","coordinates":[[[31.191,-22.252],[28.021,-21.486],[25.264,-17.737],[27.044,-17.938],[28.947,-16.043],[30.274,-15.508],[32.848,-16.713],[32.66,-20.304],[31.191,-22.252]]]}},{"type":"Feature","properties":{"code":"BWA","name":"Botswana"},"geometry":{"type":"Polygon","coordinates":[[[29.432,-22.091],[27.119,-23.574],[25.665,-25.487],[23.312,-25.269],[21.606,-26.727],[20.89,-26.829],[19.896,-24.768],[19.895,-21.849],[20.881,-21.814],[20.911,-18.252],[25.264,-17.737],[28.021,-21.486],[29.432,-22.091]]]}},{"type":"Feature","properties":{"code":"NAM","name":"Namibia"},"geometry":{"type":"Polygon","coordinates":[[[19.896,-24.768],[19.895,-28.461],[18.465,-29.045],[16.824,-28.082],[16.345,-28.577],[15.21,-27.091],[14.258,-22.111],[11.734,-17.302],[13.462,-16.971],[14.059,-17.423],[18.263,-17.31],[21.377,-17.931],[24.034,-17.296],[25.077,-17.579],[23.579,-18.281],[23.197,-17.869],[20.911,-18.252],[20.881,-21.814],[19.895,-21.849],[19.896,-24.768]]]}},{"type":"Feature","properties":{"code":"SEN","name":"Senegal"},"geometry":{"type":"Polygon","coordinates":[[[-16.714,13.595],[-17.625,14.73],[-16.121,16.456],[-14.577,16.598],[-12.171,14.617],[-11.514,12.443],[-16.677,12.385],[-16.842,13.151],[-13.845,13.505],[-16.714,13.595]]]}},{"type":"Feature","properties":{"code":"MLI","name":"Mali"},"geometry":{"type":"Polygon","coordinates":[[[-11.514,12.443],[-12.171,14.617],[-11.666,15.388],[-5.538,15.502],[-6.454,24.957],[-4.923,24.975],[3.147,19.694],[3.158,19.057],[4.267,19.155],[4.27,16.852],[3.638,15.568],[-1.066,14.974],[-4.006,13.472],[-5.221,11.714],[-5.404,10.371],[-8.03,10.207],[-9.127,12.308],[-10.165,11.844],[-11.514,12.443]]]}},{"type":"Feature","properties":{"code":"MRT","name":"Mauritania"},"geometry":{"type":"Polygon","coordinates":[[[-17.063,21.0],[-12.929,21.327],[-12.874,23.285],[-11.937,23.375],[-11.969,25.933],[-8.687,25.881],[-8.684,27.396],[-4.923,24.975],[-6.454,24.957],[-5.538,15.502],[-11.666,15.388],[-12.171,14.617],[-14.577,16.598],[-16.463,16.135],[-16.278,20.093],[-17.063,21.0]]]}},{"type":"Feature","properties":{"code":"BEN","name":"Benin"},"geometry":{"type":"Polygon","coordinates":[[[2.692,6.259],[1.865,6.142],[1.664,9.129],[0.772,10.471],[1.447,11.548],[2.849,12.236],[3.797,10.735],[2.724,8.507],[2.692,6.259]]]}},{"type":"Feature","properties":{"code":"NER","name":"Niger"},"geometry":{"type":"Polygon","coordinates":[[[14.851,22.863],[15.097,21.309],[15.903,20.388],[15.248,16.627],[13.972,15.684],[13.54,14.367],[13.954,13.353],[14.596,13.33],[14.181,12.484],[13.084,13.596],[12.302,13.037],[10.99,13.387],[9.015,12.827],[5.443,13.866],[4.108,13.531],[3.611,11.66],[2.849,12.236],[2.154,11.94],[2.177,12.625],[1.024,12.852],[0.375,14.929],[3.638,15.568],[4.27,16.852],[4.267,19.155],[12.0,23.472],[14.144,22.491],[14.851,22.863]]]}},{"type":"Feature","properties":{"code":"NGA","name":"Nigeria"},"geometry":{"type":"Polygon","coordinates":[[[2.692,6.259],[2.724,8.507],[3.705,10.063],[3.681,12.553],[4.368,13.747],[9.015,12.827],[10.99,13.387],[12.302,13.037],[13.084,13.596],[14.577,12.085],[11.746,6.981],[11.059,6.644],[10.118,7.039],[9.233,6.444],[8.5,4.772],[5.898,4.262],[4.326,6.271],[2.692,6.259]]]}},{"type":"Feature","properties":{"code":"CMR","name":"Cameroon"},"geometry":{"type":"Polygon","coordinates":[[[14.496,12.859],[15.468,9.982],[14.171,10.021],[13.954,9.549],[15.436,7.693],[14.537,6.227],[14.478,4.733],[15.863,3.014],[15.941,1.728],[14.338,2.228],[9.649,2.284],[9.795,3.073],[8.489,4.496],[8.758,5.48],[10.118,7.039],[11.059,6.644],[11.746,6.981],[14.415,11.572],[14.496,12.859]]]}},{"type":"Feature","properties":{"code":"TGO","name":"Togo"},"geometry":{"type":"Polygon","coordinates":[[[0.9,10.997],[1.664,9.129],[1.865,6.142],[1.06,5.929],[-0.05,10.707],[0.9,10.997]]]}},{"type":"Feature","properties":{"code":"GHA","name":"Ghana"},"geometry":{"type":"Polygon","coordinates":[[[0.024,11.019],[1.06,5.929],[-1.965,4.71],[-2.856,4.994],[-3.244,6.25],[-2.562,8.22],[-2.94,10.963],[0.024,11.019]]]}},{"type":"Feature","properties":{"code":"CIV","name":"C\u00f4te d'Ivoire"},"geometry":{"type":"Polygon","coordinates":[[[-8.03,10.207],[-6.205,10.524],[-4.33,9.611],[-2.827,9.642],[-2.562,8.22],[-3.244,6.25],[-2.856,4.994],[-4.65,5.168],[-7.712,4.365],[-7.57,5.707],[-8.603,6.468],[-7.832,8.576],[-8.03,10.207]]]}},{"type":"Feature","properties":{"code":"GIN","name":"Guinea"},"geometry":{"type":"Polygon","coordinates":[[[-13.7,12.586],[-10.165,11.844],[-9.127,12.308],[-8.03,10.207],[-7.832,8.576],[-8.281,7.687],[-9.209,7.314],[-9.755,8.541],[-10.505,8.349],[-11.117,10.046],[-12.426,9.836],[-13.247,8.903],[-15.13,11.04],[-13.743,11.811],[-13.7,12.586]]]}},{"type":"Feature","properties":{"code":"GNB","name":"Guinea-Bissau"},"geometry":{"type":"Polygon","coordinates":[[[-16.677,12.385],[-13.7,12.586],[-13.743,11.811],[-15.13,11.04],[-16.677,12.385]]]}},{"type":"Feature","properties":{"code":"LBR","name":"Liberia"},"geometry":{"type":"Polygon","coordinates":[[[-8.439,7.686],[-8.603,6.468],[-7.57,5.707],[-7.712,4.365],[-11.439,6.786],[-10.23,8.406],[-9.755,8.541],[-9.209,7.314],[-8.439,7.686]]]}},{"type":"Feature","properties":{"code":"SLE","name":"Sierra Leone"},"geometry":{"type":"Polygon","coordinates":[[[-13.247,8.903],[-12.426,9.836],[-11.117,10.046],[-10.23,8.406],[-11.439,6.786],[-12.949,7.799],[-13.247,8.903]]]}},{"type":"Feature","properties":{"code":"BFA","name":"Burkina Faso"},"geometry":{"type":"Polygon","coordinates":[[[-5.404,10.371],[-4.28,13.228],[-1.066,14.974],[0.375,14.929],[1.024,12.852],[2.177,12.625],[1.936,11.641],[0.9,10.997],[-2.94,10.963],[-2.827,9.642],[-4.33,9.611],[-5.404,10.371]]]}},{"type":"Feature","properties":{"code":"CAF","name":"Central African Rep."},"geometry":{"type":"Polygon","coordinates":[[[27.374,5.234],[24.411,5.109],[22.841,4.71],[22.405,4.029],[19.468,5.032],[18.453,3.504],[17.133,3.728],[16.013,2.268],[14.459,5.452],[15.279,7.422],[17.965,7.891],[18.812,8.983],[21.001,9.476],[22.864,11.142],[23.554,10.089],[23.459,8.954],[27.374,5.234]]]}},{"type":"Feature","properties":{"code":"COG","name":"Congo"},"geometry":{"type":"Polygon","coordinates":[[[18.453,3.504],[17.639,-0.425],[16.407,-1.741],[16.006,-3.535],[14.583,-4.97],[12.621,-4.438],[11.915,-5.038],[11.094,-3.979],[11.855,-3.427],[11.478,-2.766],[12.575,-1.949],[13.992,-2.471],[14.425,-1.333],[13.843,0.039],[14.276,1.197],[13.283,1.314],[13.076,2.267],[15.941,1.728],[17.133,3.728],[18.453,3.504]]]}},{"type":"Feature","properties":{"code":"GAB","name":"Gabon"},"geometry":{"type":"Polygon","coordinates":[[[11.276,2.261],[12.951,2.322],[13.283,1.314],[14.276,1.197],[13.843,0.039],[14.425,-1.333],[13.992,-2.471],[12.575,-1.949],[11.478,-2.766],[11.855,-3.427],[11.094,-3.979],[8.798,-1.111],[9.493,1.01],[11.285,1.058],[11.276,2.261]]]}},{"type":"Feature","properties":{"code":"GNQ","name":"Eq. Guinea"},"geometry":{"type":"Polygon","coordinates":[[[9.649,2.284],[11.276,2.261],[11.285,1.058],[9.493,1.01],[9.649,2.284]]]}},{"type":"Feature","properties":{"code":"ZMB","name":"Zambia"},"geometry":{"type":"Polygon","coordinates":[[[30.74,-8.34],[33.231,-9.677],[33.306,-12.436],[32.688,-13.713],[33.214,-13.972],[30.179,-14.796],[30.274,-15.508],[28.947,-16.043],[27.044,-17.938],[23.215,-17.523],[21.888,-16.08],[21.934,-12.898],[24.016,-12.911],[23.912,-10.927],[25.752,-11.785],[27.164,-11.609],[28.934,-13.249],[29.7,-13.257],[29.616,-12.179],[28.372,-11.794],[28.45,-9.165],[29.003,-8.407],[30.74,-8.34]]]}},{"type":"Feature","properties":{"code":"MWI","name":"Malawi"},"geometry":{"type":"Polygon","coordinates":[[[32.759,-9.231],[33.74,-9.417],[34.28,-10.16],[34.56,-13.58],[35.687,-14.611],[35.772,-15.897],[35.034,-16.801],[34.381,-16.184],[34.46,-14.613],[32.688,-13.713],[33.486,-10.526],[32.759,-9.231]]]}},{"type":"Feature","properties":{"code":"MOZ","name":"Mozambique"},"geometry":{"type":"Polygon","coordinates":[[[34.56,-11.52],[37.471,-11.569],[40.317,-10.317],[40.775,-14.692],[39.453,-16.721],[37.411,-17.586],[34.786,-19.784],[35.563,-22.09],[35.459,-24.123],[33.013,-25.358],[32.575,-25.727],[32.83,-26.742],[32.072,-26.734],[31.191,-22.252],[32.66,-20.304],[32.848,-16.713],[30.339,-15.881],[30.179,-14.796],[33.214,-13.972],[34.46,-14.613],[34.381,-16.184],[35.034,-16.801],[35.772,-15.897],[35.687,-14.611],[34.56,-13.58],[34.56,-11.52]]]}},{"type":"Feature","properties":{"code":"SWZ","name":"eSwatini"},"geometry":{"type":"Polygon","coordinates":[[[32.072,-26.734],[31.283,-27.286],[30.686,-26.744],[31.044,-25.731],[31.838,-25.843],[32.072,-26.734]]]}},{"type":"Feature","properties":{"code":"AGO","name":"Angola"},"geometry":{"type":"MultiPolygon","coordinates":[[[[12.996,-4.781],[12.182,-5.79],[11.915,-5.038],[12.621,-4.438],[12.996,-4.781]]],[[[12.322,-6.1],[16.327,-5.877],[17.473,-8.069],[19.017,-7.988],[20.092,-6.943],[21.728,-7.291],[22.155,-11.085],[24.018,-11.237],[24.016,-12.911],[21.934,-12.898],[21.888,-16.08],[23.215,-17.523],[21.377,-17.931],[18.263,-17.31],[14.059,-17.423],[13.462,-16.971],[11.734,-17.302],[12.176,-14.449],[13.739,-11.298],[12.322,-6.1]]]]}},{"type":"Feature","properties":{"code":"BDI","name":"Burundi"},"geometry":{"type":"Polygon","coordinates":[[[30.47,-2.414],[30.752,-3.359],[29.34,-4.5],[29.025,-2.839],[30.47,-2.414]]]}},{"type":"Feature","properties":{"code":"ISR","name":"Israel"},"geometry":{"type":"Polygon","coordinates":[[[35.72,32.709],[34.975,31.867],[35.421,31.1],[34.923,29.501],[34.265,31.219],[35.098,33.081],[35.821,33.277],[35.72,32.709]]]}},{"type":"Feature","properties":{"code":"LBN","name":"Lebanon"},"geometry":{"type":"Polygon","coordinates":[[[35.821,33.277],[35.126,33.091],[35.482,33.905],[36.448,34.594],[35.821,33.277]]]}},{"type":"Feature","properties":{"code":"MDG","name":"Madagascar"},"geometry":{"type":"Polygon","coordinates":[[[49.544,-12.47],[50.377,-15.706],[49.673,-15.71],[49.775,-16.875],[47.096,-24.942],[45.41,-25.601],[44.04,-24.988],[43.346,-22.777],[43.433,-21.336],[44.464,-19.435],[43.963,-17.41],[44.447,-16.216],[46.312,-15.78],[47.705,-14.594],[49.195,-12.041],[49.544,-12.47]]]}},{"type":"Feature","properties":{"code":"PSX","name":"Palestine"},"geometry":{"type":"Polygon","coordinates":[[[35.398,31.489],[34.927,31.353],[35.184,32.533],[35.398,31.489]]]}},{"type":"Feature","properties":{"code":"GMB","name":"Gambia"},"geometry":{"type":"Polygon","coordinates":[[[-16.714,13.595],[-13.845,13.505],[-16.842,13.151],[-16.714,13.595]]]}},{"type":"Feature","properties":{"code":"TUN","name":"Tunisia"},"geometry":{"type":"Polygon","coordinates":[[[9.482,30.308],[9.056,32.103],[7.613,33.344],[7.524,34.097],[8.141,34.655],[8.421,36.946],[9.51,37.35],[10.21,37.23],[10.181,36.724],[11.029,37.092],[10.6,36.41],[10.808,34.834],[10.15,34.331],[11.489,33.137],[11.432,32.369],[9.95,31.376],[9.97,30.539],[9.482,30.308]]]}},{"type":"Feature","properties":{"code":"DZA","name":"Algeria"},"geometry":{"type":"Polygon","coordinates":[[[-8.684,27.396],[-8.674,28.841],[-5.242,30.0],[-3.69,30.897],[-3.647,31.637],[-1.308,32.263],[-2.17,35.168],[-1.209,35.715],[1.467,36.606],[8.421,36.946],[8.141,34.655],[7.524,34.097],[7.613,33.344],[9.056,32.103],[9.806,29.425],[9.319,26.094],[10.304,24.379],[10.771,24.563],[12.0,23.472],[5.678,19.601],[3.158,19.057],[3.147,19.694],[-8.684,27.396]]]}},{"type":"Feature","properties":{"code":"JOR","name":"Jordan"},"geometry":{"type":"Polygon","coordinates":[[[35.546,32.394],[36.834,32.313],[38.792,33.379],[39.195,32.161],[37.002,31.508],[37.999,30.509],[36.069,29.197],[34.923,29.501],[35.546,32.394]]]}},{"type":"Feature","properties":{"code":"ARE","name":"United Arab Emirates"},"geometry":{"type":"Polygon","coordinates":[[[51.58,24.245],[54.008,24.122],[56.071,26.055],[56.261,25.715],[56.397,24.925],[55.886,24.921],[55.981,24.131],[55.007,22.497],[52.001,23.001],[51.58,24.245]]]}},{"type":"Feature","properties":{"code":"QAT","name":"Qatar"},"geometry":{"type":"Polygon","coordinates":[[[50.81,24.755],[51.286,26.115],[51.607,25.216],[51.39,24.627],[50.81,24.755]]]}},{"type":"Feature","properties":{"code":"KWT","name":"Kuwait"},"geometry":{"type":"Polygon","coordinates":[[[47.975,29.976],[48.416,28.552],[46.569,29.099],[47.303,30.059],[47.975,29.976]]]}},{"type":"Feature","properties":{"code":"IRQ","name":"Iraq"},"geometry":{"type":"Polygon","coordinates":[[[39.195,32.161],[38.792,33.379],[41.006,34.419],[41.29,36.359],[42.779,37.385],[44.773,37.17],[46.076,35.677],[45.417,33.968],[47.335,32.469],[48.568,29.927],[47.303,30.059],[46.569,29.099],[44.709,29.179],[41.89,31.19],[39.195,32.161]]]}},{"type":"Feature","properties":{"code":"OMN","name":"Oman"},"geometry":{"type":"MultiPolygon","coordinates":[[[[55.208,22.708],[55.886,24.921],[56.397,24.925],[59.806,22.311],[57.826,20.243],[57.694,18.945],[54.791,16.951],[53.109,16.651],[52.0,19.0],[55.0,20.0],[55.667,22.0],[55.208,22.708]]],[[[56.261,25.715],[56.071,26.055],[56.362,26.396],[56.486,26.309],[56.391,25.896],[56.261,25.715]]]]}},{"type":"Feature","properties":{"code":"VUT","name":"Vanuatu"},"geometry":{"type":"MultiPolygon","coordinates":[[[[167.217,-15.892],[167.845,-16.466],[167.515,-16.598],[167.18,-16.16],[167.217,-15.892]]],[[[166.793,-15.669],[166.629,-14.626],[167.27,-15.74],[166.793,-15.669]]]]}},{"type":"Feature","properties":{"code":"KHM","name":"Cambodia"},"geometry":{"type":"Polygon","coordinates":[[[102.585,12.187],[102.348,13.394],[102.988,14.226],[106.044,13.881],[106.496,14.571],[107.615,13.536],[107.491,12.337],[105.811,11.568],[106.25,10.962],[103.497,10.633],[102.585,12.187]]]}},{"type":"Feature","properties":{"code":"THA","name":"Thailand"},"geometry":{"type":"Polygon","coordinates":[[[105.219,14.273],[102.988,14.226],[102.348,13.394],[102.585,12.187],[100.832,12.627],[100.978,13.413],[100.098,13.407],[99.222,9.239],[99.874,9.208],[100.459,7.43],[102.141,6.222],[101.154,5.691],[98.15,8.35],[99.587,11.893],[98.192,15.124],[98.903,16.178],[97.376,18.445],[98.254,19.708],[100.116,20.418],[100.606,19.508],[101.282,19.463],[101.06,17.512],[103.2,18.31],[104.717,17.429],[104.779,16.442],[105.589,15.57],[105.219,14.273]]]}},{"type":"Feature","properties":{"code":"LAO","name":"Laos"},"geometry":{"type":"Polygon","coordinates":[[[107.383,14.202],[106.496,14.571],[106.044,13.881],[105.219,14.273],[105.589,15.57],[103.956,18.241],[101.06,17.512],[101.282,19.463],[100.606,19.508],[100.116,20.418],[101.18,21.437],[101.803,21.174],[101.652,22.318],[102.17,22.465],[103.204,20.767],[104.435,20.759],[104.823,19.887],[103.897,19.265],[105.095,18.667],[107.313,15.909],[107.383,14.202]]]}},{"type":"Feature","properties":{"code":"MMR","name":"Myanmar"},"geometry":{"type":"Polygon","coordinates":[[[100.116,20.418],[98.254,19.708],[97.376,18.445],[98.903,16.178],[98.192,15.124],[99.587,11.893],[98.554,9.933],[98.51,13.122],[97.165,16.929],[95.369,15.714],[94.189,16.038],[94.325,18.214],[93.663,19.727],[92.369,20.671],[92.303,21.475],[93.166,22.278],[93.325,24.079],[94.107,23.851],[95.125,26.574],[96.419,27.265],[97.134,27.084],[97.327,28.262],[97.912,28.336],[98.683,27.509],[98.672,25.919],[97.725,25.084],[97.605,23.897],[98.66,24.063],[98.899,23.143],[99.532,22.949],[99.241,22.118],[100.417,21.559],[101.15,21.85],[100.116,20.418]]]}},{"type":"Feature","properties":{"code":"VNM","name":"Vietnam"},"geometry":{"type":"Polygon","coordinates":[[[104.334,10.487],[106.25,10.962],[105.811,11.568],[107.491,12.337],[107.565,15.202],[105.095,18.667],[103.897,19.265],[104.823,19.887],[104.435,20.759],[103.204,20.767],[102.17,22.465],[105.329,23.352],[108.05,21.552],[106.715,20.697],[105.662,19.058],[108.877,15.277],[109.2,11.667],[105.158,8.6],[105.076,9.918],[104.334,10.487]]]}},{"type":"Feature","properties":{"code":"PRK","name":"North Korea"},"geometry":{"type":"MultiPolygon","coordinates":[[[[130.78,42.22],[130.78,42.22],[130.78,42.22],[130.78,42.22]]],[[[130.64,42.395],[129.667,41.601],[129.705,40.883],[127.533,39.757],[127.385,39.213],[128.206,38.37],[125.275,37.669],[124.712,38.108],[125.387,39.388],[124.266,39.928],[125.08,40.57],[126.869,41.817],[128.208,41.467],[128.052,41.994],[129.994,42.985],[130.64,42.395]]]]}},{"type":"Feature","properties":{"code":"KOR","name":"South Korea"},"geometry":{"type":"Polygon","coordinates":[[[126.175,37.75],[128.35,38.612],[129.46,36.784],[129.091,35.082],[126.486,34.39],[126.117,36.725],[126.86,36.894],[126.175,37.75]]]}},{"type":"Feature","properties":{"code":"MNG","name":"Mongolia"},"geometry":{"type":"Polygon","coordinates":[[[87.751,49.297],[92.235,50.802],[97.26,49.726],[98.232,50.422],[97.826,51.011],[98.861,52.047],[102.065,51.26],[102.256,50.511],[103.677,50.09],[106.889,50.274],[108.475,49.283],[110.662,49.13],[114.362,50.248],[116.679,49.889],[115.485,48.135],[115.743,47.727],[118.064,48.067],[119.773,47.048],[117.422,46.673],[113.464,44.809],[111.873,45.102],[111.348,44.457],[111.83,43.743],[110.412,42.871],[104.965,41.597],[100.846,42.664],[96.349,42.726],[95.307,44.241],[90.946,45.286],[90.586,45.72],[90.971,46.888],[90.281,47.694],[88.014,48.599],[87.751,49.297]]]}},{"type":"Feature","properties":{"code":"IND","name":"India"},"geometry":{"type":"Polygon","coordinates":[[[97.327,28.262],[97.134,27.084],[96.419,27.265],[95.125,26.574],[94.107,23.851],[93.325,24.079],[93.166,22.278],[92.673,22.041],[92.146,23.627],[91.706,22.985],[91.159,23.504],[92.376,24.977],[89.921,25.27],[89.832,25.965],[88.563,26.447],[88.21,25.768],[88.932,25.239],[88.084,24.502],[88.7,24.234],[88.889,21.691],[86.976,21.496],[86.499,20.152],[85.06,19.479],[82.191,16.557],[80.325,15.899],[79.858,10.357],[77.54,7.966],[76.593,8.899],[73.534,15.991],[72.631,21.356],[70.47,20.877],[69.164,22.089],[69.645,22.451],[69.35,22.843],[68.177,23.692],[68.843,24.359],[71.043,24.357],[69.514,26.941],[70.616,27.989],[71.778,27.913],[75.259,32.271],[74.452,32.765],[73.75,34.318],[74.24,34.749],[76.872,34.654],[77.837,35.494],[78.912,34.322],[79.209,32.994],[79.176,32.484],[78.458,32.618],[78.739,31.516],[81.111,30.183],[80.088,28.794],[83.304,27.365],[88.06,26.415],[88.12,27.877],[88.73,28.087],[88.836,27.099],[89.745,26.719],[92.033,26.838],[91.697,27.772],[94.566,29.277],[96.118,29.453],[96.587,28.831],[96.249,28.411],[97.327,28.262]]]}},{"type":"Feature","properties":{"code":"BGD","name":"Bangladesh"},"geometry":{"type":"Polygon","coordinates":[[[92.673,22.041],[92.369,20.671],[91.417,22.765],[90.496,22.805],[90.273,21.836],[89.032,22.056],[88.7,24.234],[88.084,24.502],[88.932,25.239],[88.21,25.768],[88.563,26.447],[89.832,25.965],[89.921,25.27],[92.376,24.977],[91.159,23.504],[91.706,22.985],[92.146,23.627],[92.673,22.041]]]}},{"type":"Feature","properties":{"code":"BTN","name":"Bhutan"},"geometry":{"type":"Polygon","coordinates":[[[91.697,27.772],[92.033,26.838],[88.836,27.099],[90.016,28.296],[91.697,27.772]]]}},{"type":"Feature","properties":{"code":"NPL","name":"Nepal"},"geometry":{"type":"Polygon","coordinates":[[[88.12,27.877],[88.06,26.415],[87.227,26.398],[80.088,28.794],[81.526,30.423],[85.823,28.204],[88.12,27.877]]]}},{"type":"Feature","properties":{"code":"PAK","name":"Pakistan"},"geometry":{"type":"Polygon","coordinates":[[[77.837,35.494],[76.872,34.654],[74.24,34.749],[73.75,34.318],[74.452,32.765],[75.259,32.271],[71.778,27.913],[70.616,27.989],[69.514,26.941],[71.043,24.357],[68.843,24.359],[68.177,23.692],[66.373,25.425],[61.497,25.078],[61.874,26.24],[63.317,26.757],[62.728,28.26],[60.874,29.829],[62.55,29.319],[66.346,29.888],[66.939,31.305],[69.318,31.901],[69.263,32.502],[70.324,33.359],[69.931,34.02],[70.882,33.989],[71.613,35.153],[71.262,36.074],[71.846,36.51],[75.158,37.133],[76.193,35.898],[77.837,35.494]]]}},{"type":"Feature","properties":{"code":"AFG","name":"Afghanistan"},"geometry":{"type":"Polygon","coordinates":[[[66.519,37.363],[69.196,37.151],[70.807,38.486],[71.845,36.738],[73.26,37.495],[75.158,37.133],[71.262,36.074],[71.613,35.153],[70.882,33.989],[69.931,34.02],[70.324,33.359],[69.263,32.502],[69.318,31.901],[66.939,31.305],[66.346,29.888],[62.55,29.319],[60.874,29.829],[61.781,30.736],[60.536,32.981],[61.211,35.65],[62.985,35.404],[64.546,36.312],[64.746,37.112],[65.746,37.661],[66.519,37.363]]]}},{"type":"Feature","properties":{"code":"TJK","name":"Tajikistan"},"geometry":{"type":"Polygon","coordinates":[[[67.83,37.145],[68.392,38.157],[68.176,38.902],[67.442,39.14],[67.701,39.58],[68.536,39.533],[69.329,40.728],[70.667,40.96],[70.458,40.496],[71.014,40.244],[69.56,40.103],[69.465,39.527],[73.675,39.431],[73.929,38.506],[74.865,38.379],[74.98,37.42],[73.26,37.495],[71.845,36.738],[70.807,38.486],[69.196,37.151],[67.83,37.145]]]}},{"type":"Feature","properties":{"code":"KGZ","name":"Kyrgyzstan"},"geometry":{"type":"Polygon","coordinates":[[[70.962,42.266],[71.845,42.845],[73.49,42.501],[74.213,43.298],[80.26,42.35],[76.904,41.066],[76.526,40.428],[75.468,40.562],[73.675,39.431],[71.785,39.279],[69.465,39.527],[69.56,40.103],[71.775,40.146],[73.055,40.866],[70.42,41.52],[70.962,42.266]]]}},{"type":"Feature","properties":{"code":"TKM","name":"Turkmenistan"},"geometry":{"type":"Polygon","coordinates":[[[52.502,41.783],[54.079,42.324],[55.455,41.26],[57.096,41.322],[56.932,41.826],[58.629,42.752],[59.976,42.223],[60.466,41.22],[61.883,41.085],[62.374,40.054],[64.17,38.892],[66.546,37.975],[66.519,37.363],[65.746,37.661],[64.746,37.112],[64.546,36.312],[62.231,35.271],[61.211,35.65],[61.123,36.492],[57.33,38.029],[55.512,37.964],[53.922,37.199],[53.881,38.952],[53.101,39.291],[53.358,39.975],[52.694,40.034],[52.915,40.877],[54.737,40.951],[53.722,42.123],[52.917,41.868],[52.815,41.135],[52.502,41.783]]]}},{"type":"Feature","properties":{"code":"IRN","name":"Iran"},"geometry":{"type":"Polygon","coordinates":[[[48.568,29.927],[47.335,32.469],[45.417,33.968],[46.076,35.677],[44.226,37.972],[44.109,39.428],[44.794,39.713],[46.144,38.741],[48.06,39.582],[48.011,38.794],[49.2,37.583],[52.264,36.7],[55.512,37.964],[57.33,38.029],[61.123,36.492],[60.536,32.981],[61.781,30.736],[60.874,29.829],[62.728,28.26],[63.317,26.757],[61.874,26.24],[61.497,25.078],[57.397,25.74],[56.971,26.966],[54.715,26.481],[53.493,26.812],[51.521,27.866],[50.115,30.148],[48.568,29.927]]]}},{"type":"Feature","properties":{"code":"SYR","name":"Syria"},"geometry":{"type":"Polygon","coordinates":[[[35.72,32.709],[36.612,34.202],[35.905,35.41],[36.739,36.818],[42.35,37.23],[41.29,36.359],[41.006,34.419],[36.834,32.313],[35.72,32.709]]]}},{"type":"Feature","properties":{"code":"ARM","name":"Armenia"},"geometry":{"type":"Polygon","coordinates":[[[46.506,38.771],[43.656,40.254],[43.583,41.092],[45.56,40.812],[46.506,38.771]]]}},{"type":"Feature","properties":{"code":"SWE","name":"Sweden"},"geometry":{"type":"Polygon","coordinates":[[[11.027,58.856],[12.3,60.118],[12.631,61.294],[11.992,61.8],[11.931,63.128],[12.58,64.066],[13.572,64.049],[13.92,64.445],[13.556,64.787],[16.769,68.014],[17.729,68.011],[17.994,68.567],[19.879,68.407],[20.025,69.065],[20.646,69.106],[23.539,67.936],[23.903,66.007],[22.183,65.724],[21.214,65.026],[21.37,64.414],[17.848,62.749],[17.12,61.341],[18.788,60.082],[17.869,58.954],[16.829,58.72],[15.88,56.104],[14.667,56.201],[14.101,55.408],[12.943,55.362],[11.027,58.856]]]}},{"type":"Feature","properties":{"code":"BLR","name":"Belarus"},"geometry":{"type":"Polygon","coordinates":[[[28.177,56.169],[30.874,55.551],[30.758,54.812],[32.694,53.351],[31.305,53.074],[31.786,52.102],[30.928,52.042],[30.555,51.32],[25.328,51.911],[23.527,51.578],[23.484,53.912],[25.536,54.282],[26.494,55.615],[28.177,56.169]]]}},{"type":"Feature","properties":{"code":"UKR","name":"Ukraine"},"geometry":{"type":"Polygon","coordinates":[[[31.786,52.102],[33.753,52.335],[34.392,51.769],[34.225,51.256],[35.022,51.208],[35.356,50.577],[40.069,49.601],[39.738,47.899],[34.962,46.273],[35.013,45.738],[31.675,46.706],[30.749,46.583],[29.603,45.293],[28.68,45.304],[28.234,45.488],[28.863,46.438],[30.025,46.424],[28.671,48.118],[27.523,48.467],[24.866,47.738],[22.711,47.882],[22.086,48.422],[22.776,49.027],[22.518,49.477],[23.923,50.425],[23.527,51.578],[25.328,51.911],[30.555,51.32],[30.928,52.042],[31.786,52.102]]]}},{"type":"Feature","properties":{"code":"POL","name":"Poland"},"geometry":{"type":"Polygon","coordinates":[[[23.484,53.912],[23.799,52.691],[23.199,52.487],[24.03,50.705],[22.518,49.477],[22.776,49.027],[21.608,49.47],[19.825,49.217],[17.555,50.362],[16.176,50.423],[15.017,51.107],[14.075,52.981],[14.12,53.757],[17.623,54.852],[23.484,53.912]]]}},{"type":"Feature","properties":{"code":"AUT","name":"Austria"},"geometry":{"type":"Polygon","coordinates":[[[16.98,48.123],[16.012,46.684],[14.632,46.432],[12.153,47.115],[11.049,46.751],[9.48,47.103],[9.896,47.58],[12.933,47.468],[12.884,48.289],[13.596,48.877],[16.499,48.786],[16.98,48.123]]]}},{"type":"Feature","properties":{"code":"HUN","name":"Hungary"},"geometry":{"type":"Polygon","coordinates":[[[22.086,48.422],[22.711,47.882],[21.022,46.316],[18.456,45.759],[16.202,46.852],[16.98,48.123],[17.857,47.758],[20.801,48.624],[22.086,48.422]]]}},{"type":"Feature","properties":{"code":"MDA","name":"Moldova"},"geometry":{"type":"Polygon","coordinates":[[[26.619,48.221],[28.671,48.118],[30.025,46.424],[28.863,46.438],[28.234,45.488],[28.128,46.81],[26.619,48.221]]]}},{"type":"Feature","properties":{"code":"ROU","name":"Romania"},"geometry":{"type":"Polygon","coordinates":[[[28.234,45.488],[29.603,45.293],[28.838,44.914],[28.558,43.707],[27.242,44.176],[22.945,43.824],[22.706,44.578],[21.562,44.769],[20.22,46.127],[23.142,48.096],[24.866,47.738],[26.619,48.221],[28.128,46.81],[28.234,45.488]]]}},{"type":"Feature","properties":{"code":"LTU","name":"Lithuania"},"geometry":{"type":"Polygon","coordinates":[[[26.494,55.615],[25.536,54.282],[23.484,53.912],[22.758,54.857],[21.268,55.19],[21.056,56.031],[24.861,56.373],[26.494,55.615]]]}},{"type":"Feature","properties":{"code":"LVA","name":"Latvia"},"geometry":{"type":"Polygon","coordinates":[[[27.288,57.475],[28.177,56.169],[26.494,55.615],[24.861,56.373],[21.056,56.031],[21.582,57.412],[22.524,57.753],[23.318,57.006],[24.121,57.026],[24.313,57.793],[25.165,57.97],[27.288,57.475]]]}},{"type":"Feature","properties":{"code":"EST","name":"Estonia"},"geometry":{"type":"Polygon","coordinates":[[[27.981,59.475],[27.288,57.475],[24.313,57.793],[24.429,58.383],[23.427,58.613],[23.34,59.187],[27.981,59.475]]]}},{"type":"Feature","properties":{"code":"DEU","name":"Germany"},"geometry":{"type":"Polygon","coordinates":[[[14.12,53.757],[15.017,51.107],[12.24,50.266],[13.596,48.877],[12.884,48.289],[12.933,47.468],[7.467,47.621],[8.099,49.018],[6.658,49.202],[6.043,50.128],[5.989,51.852],[6.843,52.228],[7.1,53.694],[8.122,53.528],[8.801,54.021],[8.526,54.963],[9.922,54.983],[10.939,54.009],[12.518,54.47],[14.12,53.757]]]}},{"type":"Feature","properties":{"code":"BGR","name":"Bulgaria"},"geometry":{"type":"Polygon","coordinates":[[[22.657,44.235],[22.945,43.824],[27.242,44.176],[28.558,43.707],[27.674,42.578],[27.997,42.007],[26.117,41.827],[26.106,41.329],[22.952,41.338],[22.381,42.32],[22.986,43.211],[22.657,44.235]]]}},{"type":"Feature","properties":{"code":"GRC","name":"Greece"},"geometry":{"type":"MultiPolygon","coordinates":[[[[26.29,35.3],[24.725,34.92],[23.515,35.28],[23.7,35.705],[26.29,35.3]]],[[[22.952,41.338],[26.604,41.562],[26.057,40.824],[23.715,40.687],[24.408,40.125],[22.626,40.257],[24.04,37.655],[23.115,37.92],[23.41,37.41],[22.775,37.305],[23.154,36.423],[22.49,36.41],[21.67,36.845],[20.15,39.625],[21.02,40.843],[22.952,41.338]]]]}},{"type":"Feature","properties":{"code":"TUR","name":"Turkey"},"geometry":{"type":"MultiPolygon","coordinates":[[[[44.773,37.17],[36.739,36.818],[36.15,35.822],[35.782,36.275],[36.161,36.651],[34.715,36.796],[34.027,36.22],[30.622,36.678],[29.7,36.144],[27.641,36.659],[26.318,38.208],[26.805,38.986],[26.171,39.464],[27.28,40.42],[28.82,40.46],[29.24,41.22],[31.146,41.088],[33.513,42.019],[35.168,42.04],[38.348,40.949],[42.62,41.583],[44.794,39.713],[44.109,39.428],[44.773,37.17]]],[[[26.117,41.827],[27.997,42.007],[28.988,41.3],[26.358,40.152],[26.057,40.824],[26.604,41.562],[26.117,41.827]]]]}},{"type":"Feature","properties":{"code":"ALB","name":"Albania"},"geometry":{"type":"Polygon","coordinates":[[[21.02,40.843],[20.15,39.625],[19.406,40.251],[19.304,42.196],[19.738,42.688],[20.523,42.218],[21.02,40.843]]]}},{"type":"Feature","properties":{"code":"HRV","name":"Croatia"},"geometry":{"type":"Polygon","coordinates":[[[16.565,46.504],[18.83,45.909],[19.39,45.237],[19.005,44.86],[15.959,45.234],[15.75,44.819],[18.45,42.48],[16.015,43.507],[14.902,45.076],[13.657,45.137],[15.328,45.452],[16.565,46.504]]]}},{"type":"Feature","properties":{"code":"CHE","name":"Switzerland"},"geometry":{"type":"Polygon","coordinates":[[[9.594,47.525],[9.48,47.103],[10.443,46.894],[9.923,46.315],[7.274,45.777],[6.023,46.273],[6.737,47.542],[9.594,47.525]]]}},{"type":"Feature","properties":{"code":"LUX","name":"Luxembourg"},"geometry":{"type":"Polygon","coordinates":[[[6.043,50.128],[6.186,49.464],[5.674,49.529],[6.043,50.128]]]}},{"type":"Feature","properties":{"code":"BEL","name":"Belgium"},"geometry":{"type":"Polygon","coordinates":[[[6.157,50.804],[5.674,49.529],[2.514,51.149],[4.974,51.475],[6.157,50.804]]]}},{"type":"Feature","properties":{"code":"NLD","name":"Netherlands"},"geometry":{"type":"Polygon","coordinates":[[[6.905,53.482],[6.843,52.228],[5.989,51.852],[6.157,50.804],[4.974,51.475],[3.315,51.346],[4.706,53.092],[6.905,53.482]]]}},{"type":"Feature","properties":{"code":"PRT","name":"Portugal"},"geometry":{"type":"Polygon","coordinates":[[[-9.035,41.881],[-8.264,42.28],[-6.389,41.382],[-7.499,39.63],[-7.029,38.076],[-7.856,36.838],[-8.899,36.869],[-8.84,38.266],[-9.527,38.737],[-8.769,40.761],[-9.035,41.881]]]}},{"type":"Feature","properties":{"code":"ESP","name":"Spain"},"geometry":{"type":"Polygon","coordinates":[[[-7.454,37.098],[-7.029,38.076],[-7.499,39.63],[-6.389,41.382],[-8.264,42.28],[-9.035,41.881],[-9.393,43.027],[-7.978,43.748],[-1.901,43.423],[0.338,42.58],[2.986,42.473],[3.039,41.892],[2.092,41.226],[0.811,41.015],[-0.279,39.31],[0.111,38.739],[-2.146,36.674],[-4.369,36.678],[-5.377,35.947],[-7.454,37.098]]]}},{"type":"Feature","properties":{"code":"IRL","name":"Ireland"},"geometry":{"type":"Polygon","coordinates":[[[-6.198,53.868],[-6.033,53.153],[-6.789,52.26],[-9.977,51.82],[-9.166,52.865],[-9.689,53.881],[-7.572,55.132],[-7.572,54.06],[-6.198,53.868]]]}},{"type":"Feature","properties":{"code":"NCL","name":"New Caledonia"},"geometry":{"type":"Polygon","coordinates":[[[165.78,-21.08],[167.12,-22.16],[166.19,-22.13],[164.03,-20.106],[165.78,-21.08]]]}},{"type":"Feature","properties":{"code":"SLB","name":"Solomon Is."},"geometry":{"type":"MultiPolygon","coordinates":[[[[162.119,-10.483],[162.399,-10.826],[161.7,-10.82],[161.32,-10.205],[162.119,-10.483]]],[[[161.68,-9.6],[161.529,-9.784],[160.788,-8.918],[160.58,-8.32],[160.92,-8.32],[161.28,-9.12],[161.68,-9.6]]],[[[160.852,-9.873],[159.849,-9.794],[159.703,-9.243],[160.852,-9.873]]],[[[159.64,-8.02],[159.917,-8.538],[158.211,-7.422],[159.64,-8.02]]],[[[157.14,-7.022],[157.538,-7.348],[157.339,-7.405],[156.902,-7.177],[156.491,-6.766],[156.543,-6.599],[157.14,-7.022]]]]}},{"type":"Feature","properties":{"code":"NZL","name":"New Zealand"},"geometry":{"type":"MultiPolygon","coordinates":[[[[176.886,-40.066],[176.012,-41.29],[175.24,-41.688],[174.651,-41.282],[175.228,-40.459],[173.824,-39.509],[174.575,-38.798],[174.697,-37.381],[172.636,-34.529],[174.329,-35.265],[175.958,-37.555],[178.517,-37.695],[177.97,-39.166],[177.207,-39.146],[176.886,-40.066]]],[[[169.668,-43.555],[172.799,-40.494],[173.247,-41.332],[173.958,-40.927],[174.248,-41.349],[172.711,-43.372],[173.08,-43.853],[171.453,-44.243],[170.617,-45.909],[169.332,-46.641],[166.509,-45.853],[169.668,-43.555]]]]}},{"type":"Feature","properties":{"code":"AUS","name":"Australia"},"geometry":{"type":"MultiPolygon","coordinates":[[[[147.689,-40.808],[148.289,-40.875],[147.914,-43.212],[146.048,-43.55],[144.744,-40.704],[146.364,-41.138],[147.689,-40.808]]],[[[126.149,-32.216],[124.222,-32.959],[123.66,-33.89],[119.894,-33.976],[118.025,-35.065],[116.625,-35.025],[115.027,-34.197],[115.802,-32.205],[113.339,-26.117],[113.778,-26.549],[113.441,-25.621],[114.233,-26.298],[113.394,-24.385],[113.737,-22.475],[114.15,-21.756],[114.225,-22.517],[116.712,-20.702],[120.856,-19.684],[123.013,-16.405],[123.434,-17.269],[123.859,-17.069],[123.503,-16.597],[123.817,-16.111],[124.258,-16.328],[125.686,-14.231],[127.066,-13.818],[128.36,-14.869],[129.621,-14.97],[129.41,-14.421],[130.618,-12.536],[132.575,-12.114],[131.825,-11.274],[132.357,-11.129],[135.298,-12.249],[136.492,-11.857],[136.952,-12.352],[135.962,-13.325],[135.5,-14.998],[140.215,-17.711],[141.274,-16.389],[141.687,-12.408],[142.515,-10.668],[143.922,-14.548],[144.564,-14.171],[145.375,-14.985],[146.387,-18.958],[148.848,-20.391],[149.678,-22.343],[150.727,-22.402],[150.9,-23.462],[152.855,-25.268],[153.569,-28.11],[152.892,-31.64],[150.328,-35.672],[149.997,-37.425],[146.318,-39.036],[144.877,-38.417],[145.032,-37.896],[143.61,-38.809],[140.639,-38.019],[139.574,-36.138],[138.121,-35.612],[138.208,-34.385],[136.829,-35.261],[137.89,-33.64],[137.81,-32.9],[135.989,-34.89],[135.208,-34.479],[134.274,-32.617],[131.326,-31.496],[126.149,-32.216]]]]}},{"type":"Feature","properties":{"code":"LKA","name":"Sri Lanka"},"geometry":{"type":"Polygon","coordinates":[[[81.788,7.523],[81.637,6.482],[80.348,5.968],[79.695,8.201],[80.148,9.824],[81.788,7.523]]]}},{"type":"Feature","properties":{"code":"CHN","name":"China"},"geometry":{"type":"MultiPolygon","coordinates":[[[[109.475,18.198],[108.655,18.508],[108.626,19.368],[110.787,20.078],[110.339,18.678],[109.475,18.198]]],[[[80.26,42.35],[80.18,42.92],[80.866,43.18],[79.966,44.918],[82.459,45.54],[83.18,47.33],[85.164,47.001],[85.768,48.456],[87.751,49.297],[88.014,48.599],[90.281,47.694],[90.971,46.888],[90.586,45.72],[90.946,45.286],[95.307,44.241],[96.349,42.726],[100.846,42.664],[104.965,41.597],[109.244,42.519],[111.83,43.743],[111.348,44.457],[111.873,45.102],[113.464,44.809],[117.422,46.673],[119.663,46.693],[118.064,48.067],[115.743,47.727],[115.485,48.135],[116.679,49.889],[117.879,49.511],[119.288,50.143],[120.738,51.964],[120.177,52.754],[122.246,53.432],[125.946,52.793],[127.657,49.76],[129.398,49.441],[130.582,48.73],[130.987,47.79],[135.026,48.478],[133.097,45.144],[131.025,44.968],[131.145,42.93],[130.634,42.903],[130.64,42.395],[129.994,42.985],[128.052,41.994],[128.208,41.467],[126.869,41.817],[124.266,39.928],[121.055,38.897],[122.169,40.422],[121.64,40.946],[117.533,38.738],[119.703,37.156],[120.823,37.87],[122.358,37.454],[122.52,36.931],[121.104,36.651],[119.151,34.91],[120.228,34.36],[121.908,31.692],[121.892,30.949],[121.264,30.676],[122.092,29.833],[121.684,28.226],[121.126,28.136],[118.657,24.547],[115.891,22.783],[110.785,21.397],[110.444,20.341],[109.89,20.282],[109.864,21.395],[107.043,21.812],[106.725,22.794],[105.329,23.352],[101.652,22.318],[101.803,21.174],[101.27,21.202],[101.15,21.85],[100.417,21.559],[99.241,22.118],[99.532,22.949],[98.899,23.143],[98.66,24.063],[97.605,23.897],[97.725,25.084],[98.672,25.919],[98.683,27.509],[97.912,28.336],[96.249,28.411],[96.587,28.831],[96.118,29.453],[94.566,29.277],[92.503,27.897],[90.016,28.296],[88.814,27.299],[88.73,28.087],[85.823,28.204],[78.739,31.516],[78.458,32.618],[79.176,32.484],[79.209,32.994],[78.912,34.322],[77.837,35.494],[76.193,35.898],[74.98,37.42],[74.865,38.379],[73.929,38.506],[73.675,39.431],[74.777,40.366],[76.526,40.428],[76.904,41.066],[80.26,42.35]]]]}},{"type":"Feature","properties":{"code":"TWN","name":"Taiwan"},"geometry":{"type":"Polygon","coordinates":[[[121.778,24.394],[120.747,21.971],[120.106,23.556],[121.495,25.295],[121.778,24.394]]]}},{"type":"Feature","properties":{"code":"ITA","name":"Italy"},"geometry":{"type":"MultiPolygon","coordinates":[[[[10.443,46.894],[12.153,47.115],[13.806,46.509],[13.938,45.591],[12.329,45.382],[12.589,44.091],[15.143,41.955],[15.926,41.961],[15.889,41.541],[18.377,40.356],[18.293,39.811],[16.87,40.442],[16.449,39.795],[17.171,39.425],[17.053,38.903],[15.684,37.909],[16.109,38.965],[15.414,40.048],[11.192,42.355],[10.2,43.92],[8.889,44.366],[7.435,43.694],[6.844,45.991],[8.966,46.037],[10.443,46.894]]],[[[14.761,38.144],[15.52,38.231],[15.1,36.62],[12.431,37.613],[12.571,38.126],[14.761,38.144]]],[[[8.71,40.9],[9.21,41.21],[9.81,40.5],[9.67,39.177],[8.807,38.907],[8.16,40.95],[8.71,40.9]]]]}},{"type":"Feature","properties":{"code":"DNK","name":"Denmark"},"geometry":{"type":"MultiPolygon","coordinates":[[[[9.922,54.983],[8.526,54.963],[8.09,56.54],[10.58,57.73],[10.25,56.89],[10.912,56.459],[9.65,55.47],[9.922,54.983]]],[[[12.371,56.111],[12.69,55.61],[12.09,54.8],[11.044,55.365],[10.904,55.78],[12.371,56.111]]]]}},{"type":"Feature","properties":{"code":"GBR","name":"United Kingdom"},"geometry":{"type":"MultiPolygon","coordinates":[[[[-6.198,53.868],[-7.572,54.06],[-7.572,55.132],[-5.662,54.555],[-6.198,53.868]]],[[[-3.094,53.405],[-2.945,53.985],[-3.63,54.615],[-5.083,55.062],[-5.048,55.784],[-5.586,55.311],[-6.15,56.785],[-5.01,58.63],[-3.005,58.635],[-4.074,57.553],[-1.959,57.685],[-3.119,55.974],[-2.085,55.91],[0.47,52.93],[1.682,52.74],[1.051,51.807],[1.45,51.289],[0.55,50.766],[-2.956,50.697],[-5.245,49.96],[-5.777,50.16],[-3.415,51.426],[-5.267,51.991],[-4.222,52.301],[-4.77,52.84],[-4.58,53.495],[-3.094,53.405]]]]}},{"type":"Feature","properties":{"code":"ISL","name":"Iceland"},"geometry":{"type":"Polygon","coordinates":[[[-14.509,66.456],[-14.74,65.809],[-13.61,65.127],[-18.656,63.496],[-22.763,63.96],[-21.778,64.402],[-23.955,64.891],[-22.227,65.379],[-24.326,65.611],[-23.651,66.263],[-22.135,66.41],[-20.576,65.732],[-19.057,66.277],[-14.509,66.456]]]}},{"type":"Feature","properties":{"code":"AZE","name":"Azerbaijan"},"geometry":{"type":"MultiPolygon","coordinates":[[[[46.405,41.861],[47.816,41.151],[48.584,41.809],[50.393,40.257],[49.569,40.176],[48.883,38.32],[48.011,38.794],[48.06,39.582],[46.506,38.771],[46.483,39.464],[45.61,39.9],[45.892,40.218],[44.972,41.248],[46.502,41.064],[46.405,41.861]]],[[[46.144,38.741],[44.794,39.713],[45.74,39.474],[46.144,38.741]]]]}},{"type":"Feature","properties":{"code":"GEO","name":"Georgia"},"geometry":{"type":"Polygon","coordinates":[[[39.955,43.435],[45.47,42.503],[46.638,41.182],[41.554,41.536],[41.453,42.645],[39.955,43.435]]]}},{"type":"Feature","properties":{"code":"PHL","name":"Philippines"},"geometry":{"type":"MultiPolygon","coordinates":[[[[120.834,12.704],[120.323,13.466],[121.527,13.07],[121.262,12.206],[120.834,12.704]]],[[[122.586,9.981],[122.947,10.882],[123.499,10.941],[123.338,10.267],[124.078,11.233],[122.996,9.022],[122.586,9.981]]],[[[126.377,8.415],[126.537,7.189],[126.197,6.274],[125.831,7.294],[125.364,6.786],[125.397,5.581],[124.22,6.161],[124.244,7.361],[123.61,7.834],[121.92,7.192],[123.488,8.693],[123.841,8.24],[125.471,8.987],[125.412,9.76],[126.223,9.286],[126.377,8.415]]],[[[118.505,9.316],[117.174,8.367],[119.511,11.37],[119.69,10.554],[118.505,9.316]]],[[[122.337,18.225],[122.516,17.094],[121.663,15.931],[121.729,14.328],[123.95,13.782],[124.077,12.537],[122.929,13.553],[122.671,13.186],[122.035,13.784],[120.629,13.858],[120.992,14.525],[120.564,14.396],[119.921,15.406],[120.716,18.505],[122.337,18.225]]],[[[122.038,11.416],[121.884,11.892],[123.12,11.584],[122.003,10.441],[122.038,11.416]]],[[[125.503,12.163],[125.783,11.046],[125.012,11.311],[125.277,10.359],[124.802,10.135],[124.303,11.495],[124.878,11.794],[124.267,12.558],[125.503,12.163]]]]}},{"type":"Feature","properties":{"code":"MYS","name":"Malaysia"},"geometry":{"type":"MultiPolygon","coordinates":[[[[100.086,6.464],[101.076,6.205],[101.154,5.691],[102.141,6.222],[102.962,5.524],[104.229,1.293],[103.52,1.226],[101.391,2.761],[100.086,6.464]]],[[[117.882,4.138],[115.866,4.307],[114.621,1.431],[110.514,0.773],[109.83,1.338],[109.663,2.006],[111.169,1.851],[111.37,2.697],[112.996,3.102],[114.204,4.526],[114.66,4.008],[115.347,4.317],[115.451,5.448],[116.725,6.925],[119.182,5.408],[117.882,4.138]]]]}},{"type":"Feature","properties":{"code":"BRN","name":"Brunei"},"geometry":{"type":"Polygon","coordinates":[[[115.451,5.448],[115.347,4.317],[114.66,4.008],[114.204,4.526],[115.451,5.448]]]}},{"type":"Feature","properties":{"code":"SVN","name":"Slovenia"},"geometry":{"type":"Polygon","coordinates":[[[13.806,46.509],[16.565,46.504],[15.328,45.452],[13.715,45.5],[13.806,46.509]]]}},{"type":"Feature","properties":{"code":"FIN","name":"Finland"},"geometry":{"type":"Polygon","coordinates":[[[28.592,69.065],[28.446,68.365],[29.977,67.698],[29.055,66.944],[30.218,65.806],[29.544,64.949],[30.445,64.204],[30.036,63.553],[31.516,62.868],[31.14,62.358],[28.07,60.504],[22.87,59.846],[21.322,60.72],[21.545,61.705],[21.059,62.607],[21.536,63.19],[25.398,65.111],[23.566,66.396],[23.539,67.936],[20.646,69.106],[24.736,68.65],[26.18,69.825],[27.732,70.164],[29.016,69.766],[28.592,69.065]]]}},{"type":"Feature","properties":{"code":"SVK","name":"Slovakia"},"geometry":{"type":"Polygon","coordinates":[[[22.558,49.086],[21.872,48.32],[20.801,48.624],[17.857,47.758],[16.88,48.47],[18.555,49.495],[22.558,49.086]]]}},{"type":"Feature","properties":{"code":"CZE","name":"Czechia"},"geometry":{"type":"Polygon","coordinates":[[[15.017,51.107],[18.853,49.496],[16.96,48.597],[15.253,49.039],[14.339,48.555],[12.521,49.547],[12.24,50.266],[15.017,51.107]]]}},{"type":"Feature","properties":{"code":"ERI","name":"Eritrea"},"geometry":{"type":"Polygon","coordinates":[[[36.43,14.422],[36.853,16.957],[38.41,17.998],[39.266,15.923],[43.081,12.7],[42.352,12.542],[40.026,14.52],[37.906,14.959],[37.594,14.213],[36.43,14.422]]]}},{"type":"Feature","properties":{"code":"JPN","name":"Japan"},"geometry":{"type":"MultiPolygon","coordinates":[[[[141.885,39.181],[140.959,38.174],[140.253,35.138],[137.218,34.606],[135.793,33.465],[135.121,33.849],[135.079,34.597],[130.986,33.886],[132.0,33.15],[131.333,31.45],[130.686,31.03],[130.202,31.418],[130.448,32.319],[129.408,33.296],[132.618,35.433],[135.678,35.527],[136.724,37.305],[137.391,36.827],[139.426,38.216],[140.306,41.195],[141.369,41.379],[141.885,39.181]]],[[[144.613,43.961],[145.321,44.385],[145.543,43.262],[144.06,42.988],[143.184,41.995],[141.611,42.679],[141.067,41.585],[139.955,41.57],[139.818,42.564],[140.312,43.333],[141.381,43.389],[141.968,45.551],[144.613,43.961]]],[[[132.371,33.464],[133.904,34.365],[134.766,33.806],[134.203,33.201],[133.28,33.29],[133.015,32.705],[132.371,33.464]]]]}},{"type":"Feature","properties":{"code":"PRY","name":"Paraguay"},"geometry":{"type":"Polygon","coordinates":[[[-58.166,-20.177],[-57.937,-22.09],[-55.798,-22.357],[-55.401,-23.957],[-54.293,-24.021],[-54.789,-26.622],[-55.696,-27.388],[-58.618,-27.124],[-57.777,-25.162],[-60.847,-23.881],[-62.685,-22.249],[-61.786,-19.634],[-59.115,-19.357],[-58.166,-20.177]]]}},{"type":"Feature","properties":{"code":"YEM","name":"Yemen"},"geometry":{"type":"Polygon","coordinates":[[[52.0,19.0],[53.109,16.651],[52.385,16.382],[52.168,15.597],[44.99,12.7],[43.483,12.637],[42.605,15.213],[43.381,17.58],[47.0,16.95],[49.117,18.617],[52.0,19.0]]]}},{"type":"Feature","properties":{"code":"SAU","name":"Saudi Arabia"},"geometry":{"type":"Polygon","coordinates":[[[34.956,29.357],[36.069,29.197],[37.504,30.004],[37.999,30.509],[37.002,31.508],[39.195,32.161],[41.89,31.19],[44.709,29.179],[47.46,29.003],[50.152,26.69],[50.24,25.608],[51.39,24.627],[52.001,23.001],[55.208,22.708],[55.667,22.0],[55.0,20.0],[49.117,18.617],[47.0,16.95],[43.381,17.58],[42.779,16.348],[40.939,19.486],[39.139,21.292],[38.493,23.688],[37.484,24.285],[35.13,28.063],[34.632,28.059],[34.956,29.357]]]}},{"type":"Feature","properties":{"code":"CYN","name":"N. Cyprus"},"geometry":{"type":"Polygon","coordinates":[[[32.732,35.14],[34.576,35.672],[33.974,35.059],[32.732,35.14]]]}},{"type":"Feature","properties":{"code":"CYP","name":"Cyprus"},"geometry":{"type":"Polygon","coordinates":[[[32.732,35.14],[34.005,34.978],[32.98,34.572],[32.257,35.103],[32.732,35.14]]]}},{"type":"Feature","properties":{"code":"MAR","name":"Morocco"},"geometry":{"type":"Polygon","coordinates":[[[-2.17,35.168],[-1.308,32.263],[-3.647,31.637],[-3.69,30.897],[-5.242,30.0],[-8.674,28.841],[-8.795,27.121],[-11.393,26.883],[-12.501,24.77],[-13.891,23.691],[-14.751,21.501],[-17.02,21.422],[-14.44,26.254],[-9.565,29.934],[-9.815,31.178],[-8.657,33.24],[-6.913,34.11],[-5.93,35.76],[-2.17,35.168]]]}},{"type":"Feature","properties":{"code":"EGY","name":"Egypt"},"geometry":{"type":"Polygon","coordinates":[[[36.866,22],[25,22],[24.7,30.044],[25.165,31.569],[28.914,30.87],[30.977,31.556],[31.96,30.934],[34.265,31.219],[34.923,29.501],[34.155,27.823],[32.32,29.76],[35.692,23.927],[35.526,23.102],[36.866,22]]]}},{"type":"Feature","properties":{"code":"LBY","name":"Libya"},"geometry":{"type":"Polygon","coordinates":[[[25,22],[25,20.003],[23.85,20],[23.838,19.58],[15.861,23.41],[14.144,22.491],[10.771,24.563],[10.304,24.379],[9.319,26.094],[9.95,31.376],[11.432,32.369],[11.489,33.137],[15.246,32.265],[15.714,31.376],[19.086,30.266],[20.053,30.986],[19.82,31.752],[20.855,32.707],[24.921,31.899],[25,22]]]}},{"type":"Feature","properties":{"code":"ETH","name":"Ethiopia"},"geometry":{"type":"Polygon","coordinates":[[[47.789,8.003],[44.964,5.002],[43.661,4.958],[41.855,3.919],[40.768,4.257],[39.559,3.422],[36.159,4.448],[34.707,6.594],[32.954,7.785],[33.825,8.379],[34.257,10.63],[35.864,12.578],[36.43,14.422],[37.594,14.213],[37.906,14.959],[40.026,14.52],[41.599,13.452],[42.352,12.542],[41.756,11.051],[42.777,10.927],[42.559,10.573],[43.679,9.184],[47.789,8.003]]]}},{"type":"Feature","properties":{"code":"DJI","name":"Djibouti"},"geometry":{"type":"Polygon","coordinates":[[[42.352,12.542],[43.318,12.39],[42.777,10.927],[41.756,11.051],[42.352,12.542]]]}},{"type":"Feature","properties":{"code":"SOL","name":"Somaliland"},"geometry":{"type":"Polygon","coordinates":[[[48.948,11.411],[48.938,9.452],[47.789,8.003],[43.679,9.184],[42.559,10.573],[43.145,11.462],[44.118,10.446],[48.948,11.411]]]}},{"type":"Feature","properties":{"code":"UGA","name":"Uganda"},"geometry":{"type":"Polygon","coordinates":[[[33.904,-0.95],[29.579,-1.341],[29.876,0.597],[31.174,2.204],[30.773,2.34],[31.246,3.782],[33.39,3.79],[34.005,4.25],[34.479,3.556],[35.036,1.906],[33.894,0.11],[33.904,-0.95]]]}},{"type":"Feature","properties":{"code":"RWA","name":"Rwanda"},"geometry":{"type":"Polygon","coordinates":[[[30.419,-1.135],[30.758,-2.287],[29.025,-2.839],[29.292,-1.62],[30.419,-1.135]]]}},{"type":"Feature","properties":{"code":"BIH","name":"Bosnia and Herz."},"geometry":{"type":"Polygon","coordinates":[[[18.56,42.65],[16.456,44.041],[15.75,44.819],[15.959,45.234],[19.368,44.863],[19.454,43.568],[18.56,42.65]]]}},{"type":"Feature","properties":{"code":"MKD","name":"North Macedonia"},"geometry":{"type":"Polygon","coordinates":[[[22.381,42.32],[22.952,41.338],[20.605,41.086],[20.762,42.052],[22.381,42.32]]]}},{"type":"Feature","properties":{"code":"SRB","name":"Serbia"},"geometry":{"type":"Polygon","coordinates":[[[18.83,45.909],[20.22,46.127],[21.562,44.769],[22.706,44.578],[22.41,44.008],[22.986,43.211],[22.545,42.461],[21.577,42.245],[21.775,42.683],[20.814,43.272],[20.258,42.813],[19.219,43.524],[19.6,44.038],[18.83,45.909]]]}},{"type":"Feature","properties":{"code":"MNE","name":"Montenegro"},"geometry":{"type":"Polygon","coordinates":[[[20.071,42.589],[19.372,41.878],[18.45,42.48],[19.219,43.524],[20.34,42.899],[20.071,42.589]]]}},{"type":"Feature","properties":{"code":"KOS","name":"Kosovo"},"geometry":{"type":"Polygon","coordinates":[[[20.59,41.855],[20.071,42.589],[20.635,43.217],[21.775,42.683],[20.59,41.855]]]}},{"type":"Feature","properties":{"code":"TTO","name":"Trinidad and Tobago"},"geometry":{"type":"Polygon","coordinates":[[[-61.68,10.76],[-60.895,10.855],[-60.935,10.11],[-61.95,10.09],[-61.68,10.76]]]}},{"type":"Feature","properties":{"code":"SDS","name":"S. Sudan"},"geometry":{"type":"Polygon","coordinates":[[[30.834,3.509],[29.716,4.601],[27.98,4.408],[23.887,8.62],[24.537,8.918],[25.07,10.274],[25.791,10.411],[26.752,9.467],[28.967,9.398],[29.997,10.291],[31.353,9.81],[32.4,11.081],[32.074,11.973],[33.207,12.179],[33.975,8.685],[32.954,7.785],[34.075,7.226],[35.298,5.506],[33.39,3.79],[30.834,3.509]]]}}]}